uid,district,phone,url,county,chamber,address,email,name
646,75,919-733-5747,http://www.ncleg.net/gascripts/members/viewMember.pl?nUserID=646&sChamber=House,Forsyth,H,"NC House of Representatives,300 N. Salisbury Street, Room 610
,Raleigh, NC 27603-5925",Donny.Lambeth@ncleg.net,Representative Donny Lambeth  (Rep)
18,58,919-733-5902,http://www.ncleg.net/gascripts/members/viewMember.pl?nUserID=18&sChamber=House,Guilford,H,"NC House of Representatives,16 W. Jones Street, Room 1219
,Raleigh, NC 27601-1096",Alma.Adams@ncleg.net,Representative Alma Adams  (Dem)
595,39,919-733-5974,http://www.ncleg.net/gascripts/members/viewMember.pl?nUserID=595&sChamber=House,Wake,H,"NC House of Representatives,16 W. Jones Street, Room 1013
,Raleigh, NC 27601-1096",Darren.Jackson@ncleg.net,Representative Darren G. Jackson  (Dem)
292,83,919-733-5861,http://www.ncleg.net/gascripts/members/viewMember.pl?nUserID=292&sChamber=House,Cabarrus,H,"NC House of Representatives,300 N. Salisbury Street, Room 301D
,Raleigh, NC 27603-5925",Linda.Johnson2@ncleg.net,Representative Linda P. Johnson  (Rep)
677,92,919-733-5654,http://www.ncleg.net/gascripts/members/viewMember.pl?nUserID=677&sChamber=House,Mecklenburg,H,"NC House of Representatives,16 W. Jones Street, Room 1002
,Raleigh, NC 27601-1096",Charles.Jeter@ncleg.net,Representative Charles Jeter  (Rep)
46,56,919-733-7208,http://www.ncleg.net/gascripts/members/viewMember.pl?nUserID=46&sChamber=House,Orange,H,"NC House of Representatives,300 N. Salisbury Street, Room 502
,Raleigh, NC 27603-5925",Verla.Insko@ncleg.net,Representative Verla Insko  (Dem)
620,65,919-733-5779,http://www.ncleg.net/gascripts/members/viewMember.pl?nUserID=620&sChamber=House,"Caswell,Rockingham",H,"NC House of Representatives,300 N. Salisbury Street, Room 416A
,Raleigh, NC 27603-5925",Bert.Jones@ncleg.net,Representative Bert Jones  (Rep)
621,93,919-733-7727,http://www.ncleg.net/gascripts/members/viewMember.pl?nUserID=621&sChamber=House,"Ashe,Watauga",H,"NC House of Representatives,300 N. Salisbury Street, Room 420
,Raleigh, NC 27603-5925",Jonathan.Jordan@ncleg.net,Representative Jonathan C. Jordan  (Rep)
53,79,919-733-5904,http://www.ncleg.net/gascripts/members/viewMember.pl?nUserID=53&sChamber=House,"Davie,Forsyth",H,"NC House of Representatives,300 N. Salisbury Street, Room 302
,Raleigh, NC 27603-5925",Julia.Howard@ncleg.net,Representative Julia C. Howard  (Rep)
604,68,919-733-2406,http://www.ncleg.net/gascripts/members/viewMember.pl?nUserID=604&sChamber=House,Union,H,"NC House of Representatives,300 N. Salisbury Street, Room 419A
,Raleigh, NC 27603-5925",Craig.Horn@ncleg.net,Representative D. Craig Horn  (Rep)
650,38,919-733-5758,http://www.ncleg.net/gascripts/members/viewMember.pl?nUserID=650&sChamber=House,Wake,H,"NC House of Representatives,16 W. Jones Street, Room 1211
,Raleigh, NC 27601-1096",Yvonne.Holley@ncleg.net,Representative Yvonne Lewis Holley  (Dem)
531,91,919-733-5609,http://www.ncleg.net/gascripts/members/viewMember.pl?nUserID=531&sChamber=House,"Rockingham,Stokes",H,"NC House of Representatives,300 N. Salisbury Street, Room 305
,Raleigh, NC 27603-5925",Bryan.Holloway@ncleg.net,Representative Bryan R. Holloway  (Rep)
598,17,919-301-1450,http://www.ncleg.net/gascripts/members/viewMember.pl?nUserID=598&sChamber=House,Brunswick,H,"NC House of Representatives,300 N. Salisbury Street, Room 637
,Raleigh, NC 27603-5925",Frank.Iler@ncleg.net,Representative Frank Iler  (Rep)
618,110,919-715-2002,http://www.ncleg.net/gascripts/members/viewMember.pl?nUserID=618&sChamber=House,"Cleveland,Gaston",H,"NC House of Representatives,16 W. Jones Street, Room 2123
,Raleigh, NC 27601-1096",Kelly.Hastings@ncleg.net,Representative Kelly E. Hastings  (Rep)
619,73,919-715-8361,http://www.ncleg.net/gascripts/members/viewMember.pl?nUserID=619&sChamber=House,"Alexander,Wilkes,Yadkin",H,"NC House of Representatives,300 N. Salisbury Street, Room 639
,Raleigh, NC 27603-5925",Mark.Hollo@ncleg.net,Representative Mark W. Hollo  (Rep)
560,70,919-733-5865,http://www.ncleg.net/gascripts/members/viewMember.pl?nUserID=560&sChamber=House,Randolph,H,"NC House of Representatives,300 N. Salisbury Street, Room 532
,Raleigh, NC 27603-5925",Pat.Hurley@ncleg.net,Representative Pat B. Hurley  (Rep)
379,22,(919) 733-4809,http://www.ncleg.net/gascripts/members/viewMember.pl?nUserID=379&sChamber=senate,"Caswell,Durham,Person",S,"NC Senate,300 N. Salisbury Street, Room 515
,Raleigh, NC 27603-5925",Mike.Woodard@ncleg.net,Senator Mike Woodard  (Dem)
310,35,(919) 733-7659,http://www.ncleg.net/gascripts/members/viewMember.pl?nUserID=310&sChamber=senate,Union,S,"NC Senate,300 N. Salisbury Street, Room 311
,Raleigh, NC 27603-5925",Tommy.Tucker@ncleg.net,Senator Tommy Tucker  (Rep)
376,41,(919) 715-3050,http://www.ncleg.net/gascripts/members/viewMember.pl?nUserID=376&sChamber=senate,Mecklenburg,S,"NC Senate,16 W. Jones Street, Room 2115
,Raleigh, NC 27601-2808",Jeff.Tarte@ncleg.net,Senator Jeff Tarte  (Rep)
267,16,(919) 715-6400,http://www.ncleg.net/gascripts/members/viewMember.pl?nUserID=267&sChamber=senate,Wake,S,"NC Senate,16 W. Jones Street, Room 1113
,Raleigh, NC 27601-2808",Josh.Stein@ncleg.net,Senator Josh Stein  (Dem)
297,45,(919) 733-5742,http://www.ncleg.net/gascripts/members/viewMember.pl?nUserID=297&sChamber=senate,"Alleghany,Ashe,Avery,Caldwell,Watauga",S,"NC Senate,300 N. Salisbury Street, Room 310
,Raleigh, NC 27603-5925",Dan.Soucek@ncleg.net,Senator Dan Soucek  (Rep)
377,27,(919) 733-5856,http://www.ncleg.net/gascripts/members/viewMember.pl?nUserID=377&sChamber=senate,Guilford,S,"NC Senate,16 W. Jones Street, Room 2106
,Raleigh, NC 27601-2808",Trudy.Wade@ncleg.net,Senator Trudy Wade  (Rep)
269,13,(919) 733-5651,http://www.ncleg.net/gascripts/members/viewMember.pl?nUserID=269&sChamber=senate,"Columbus,Robeson",S,"NC Senate,300 N. Salisbury Street, Room 517
,Raleigh, NC 27603-5925",Michael.Walters@ncleg.net,Senator Michael P. Walters  (Dem)
99,29,(919) 733-5870,http://www.ncleg.net/gascripts/members/viewMember.pl?nUserID=99&sChamber=senate,"Moore,Randolph",S,"NC Senate,300 N. Salisbury Street, Room 627
,Raleigh, NC 27603-5925",Jerry.Tillman@ncleg.net,Senator Jerry W. Tillman  (Rep)
11,39,(919) 733-5655,http://www.ncleg.net/gascripts/members/viewMember.pl?nUserID=11&sChamber=senate,Mecklenburg,S,"NC Senate,300 N. Salisbury Street, Room 300-A
,Raleigh, NC 27603-5925",Bob.Rucho@ncleg.net,Senator Bob Rucho  (Rep)
374,30,(919) 733-5743,http://www.ncleg.net/gascripts/members/viewMember.pl?nUserID=374&sChamber=senate,"Stokes,Surry,Wilkes",S,"NC Senate,300 N. Salisbury Street, Room 308
,Raleigh, NC 27603-5925",Shirley.Randleman@ncleg.net,Senator Shirley B. Randleman  (Rep)
372,32,(919) 733-5620,http://www.ncleg.net/gascripts/members/viewMember.pl?nUserID=372&sChamber=senate,Forsyth,S,"NC Senate,300 N. Salisbury Street, Room 519
,Raleigh, NC 27603-5925",Earline.Parmon@ncleg.net,Senator Earline W. Parmon  (Dem)
303,8,(919) 733-5963,http://www.ncleg.net/gascripts/members/viewMember.pl?nUserID=303&sChamber=senate,"Bladen,Brunswick,New Hanover,Pender",S,"NC Senate,16 W. Jones Street, Room 2108
,Raleigh, NC 27601-2808",Bill.Rabon@ncleg.net,Senator Bill Rabon  (Rep)
373,12,(919) 733-5748,http://www.ncleg.net/gascripts/members/viewMember.pl?nUserID=373&sChamber=senate,"Harnett,Johnston,Lee",S,"NC Senate,300 N. Salisbury Street, Room 526
,Raleigh, NC 27603-5925",Ron.Rabin@ncleg.net,Senator Ronald J. Rabin  (Rep)
273,7,(919) 733-5621,http://www.ncleg.net/gascripts/members/viewMember.pl?nUserID=273&sChamber=senate,"Lenoir,Pitt,Wayne",S,"NC Senate,16 W. Jones Street, Room 1028
,Raleigh, NC 27601-2808",Louis.Pate@ncleg.net,Senator Louis Pate  (Rep)
364,28,(919) 715-3042,http://www.ncleg.net/gascripts/members/viewMember.pl?nUserID=364&sChamber=senate,Guilford,S,"NC Senate,16 W. Jones Street, Room 1120
,Raleigh, NC 27601-2808",Gladys.Robinson@ncleg.net,Senator Gladys A. Robinson  (Dem)
375,2,(919) 733-5706,http://www.ncleg.net/gascripts/members/viewMember.pl?nUserID=375&sChamber=senate,"Carteret,Craven,Pamlico",S,"NC Senate,300 N. Salisbury Street, Room 629
,Raleigh, NC 27603-5925",Norman.Sanderson@ncleg.net,Senator Norman W. Sanderson  (Rep)
119,49,(919) 715-3001,http://www.ncleg.net/gascripts/members/viewMember.pl?nUserID=119&sChamber=senate,Buncombe,S,"NC Senate,16 W. Jones Street, Room 1129
,Raleigh, NC 27601-2808",Martin.Nesbitt@ncleg.net,"Senator Martin L. Nesbitt, Jr.  (Dem)"
8,,,http://www.ncleg.net/gascripts/members/viewMember.pl?nUserID=8&sChamber=senate,,S,,,Senator Eleanor Kinnaird  (Dem)
371,25,(919) 733-5953,http://www.ncleg.net/gascripts/members/viewMember.pl?nUserID=371&sChamber=senate,"Anson,Richmond,Rowan,Scotland,Stanly",S,"NC Senate,16 W. Jones Street, Room 1118
,Raleigh, NC 27601-2808",Gene.McLaurin@ncleg.net,Senator Gene McLaurin  (Dem)
305,19,(919) 733-5776,http://www.ncleg.net/gascripts/members/viewMember.pl?nUserID=305&sChamber=senate,Cumberland,S,"NC Senate,300 N. Salisbury Street, Room 314
,Raleigh, NC 27603-5925",Wesley.Meredith@ncleg.net,Senator Wesley Meredith  (Rep)
362,11,(919) 715-3030,http://www.ncleg.net/gascripts/members/viewMember.pl?nUserID=362&sChamber=senate,"Johnston,Nash,Wilson",S,"NC Senate,300 N. Salisbury Street, Room 408
,Raleigh, NC 27603-5925",Buck.Newton@ncleg.net,Senator E. S. (Buck) Newton  (Rep)
228,20,(919) 733-4599,http://www.ncleg.net/gascripts/members/viewMember.pl?nUserID=228&sChamber=senate,"Durham,Granville",S,"NC Senate,300 N. Salisbury Street, Room 628
,Raleigh, NC 27603-5925",Floyd.McKissick@ncleg.net,"Senator Floyd B. McKissick, Jr.  (Dem)"
71,3,(919) 715-3040,http://www.ncleg.net/gascripts/members/viewMember.pl?nUserID=71&sChamber=senate,"Bertie,Chowan,Edgecombe,Hertford,Martin,Northampton,Tyrrell,Washington",S,"NC Senate,300 N. Salisbury Street, Room 621
,Raleigh, NC 27603-5925",Clark.Jenkins@ncleg.net,Senator Clark Jenkins  (Dem)
227,4,(919) 715-3032,http://www.ncleg.net/gascripts/members/viewMember.pl?nUserID=227&sChamber=senate,"Halifax,Nash,Vance,Warren,Wilson",S,"NC Senate,300 N. Salisbury Street, Room 518
,Raleigh, NC 27603-5925",Edward.Jones@ncleg.net,Senator Ed Jones  (Dem)
298,47,(919) 733-3460,http://www.ncleg.net/gascripts/members/viewMember.pl?nUserID=298&sChamber=senate,"Madison,McDowell,Mitchell,Polk,Rutherford,Yancey",S,"NC Senate,16 W. Jones Street, Room 1026
,Raleigh, NC 27601-2808",Ralph.Hise@ncleg.net,Senator Ralph Hise  (Rep)
281,10,(919) 733-5705,http://www.ncleg.net/gascripts/members/viewMember.pl?nUserID=281&sChamber=senate,"Duplin,Johnston,Sampson",S,"NC Senate,300 N. Salisbury Street, Room 523
,Raleigh, NC 27603-5925",Brent.Jackson@ncleg.net,Senator Brent Jackson  (Rep)
283,43,(919) 733-5734,http://www.ncleg.net/gascripts/members/viewMember.pl?nUserID=283&sChamber=senate,Gaston,S,"NC Senate,16 W. Jones Street, Room 2113
,Raleigh, NC 27601-2808",Kathy.Harrington@ncleg.net,Senator Kathy Harrington  (Rep)
20,36,(919) 733-7223,http://www.ncleg.net/gascripts/members/viewMember.pl?nUserID=20&sChamber=senate,"Cabarrus,Union",S,"NC Senate,300 N. Salisbury Street, Room 300-C
,Raleigh, NC 27603-5925",Fletcher.Hartsell@ncleg.net,"Senator Fletcher L. Hartsell, Jr.  (Rep)"
200,15,(919) 733-5850,http://www.ncleg.net/gascripts/members/viewMember.pl?nUserID=200&sChamber=senate,Wake,S,"NC Senate,300 N. Salisbury Street, Room 309
,Raleigh, NC 27603-5925",Neal.Hunt@ncleg.net,Senator Neal Hunt  (Rep)
331,9,(919) 715-2525,http://www.ncleg.net/gascripts/members/viewMember.pl?nUserID=331&sChamber=senate,New Hanover,S,"NC Senate,300 N. Salisbury Street, Room 406
,Raleigh, NC 27603-5925",Thom.Goolsby@ncleg.net,Senator Thom Goolsby  (Rep)
276,24,(919) 301-1446,http://www.ncleg.net/gascripts/members/viewMember.pl?nUserID=276&sChamber=senate,"Alamance,Randolph",S,"NC Senate,300 N. Salisbury Street, Room 312
,Raleigh, NC 27603-5925",Rick.Gunn@ncleg.net,Senator Rick Gunn  (Rep)
192,40,(919) 733-5650,http://www.ncleg.net/gascripts/members/viewMember.pl?nUserID=192&sChamber=senate,Mecklenburg,S,"NC Senate,300 N. Salisbury Street, Room 622
,Raleigh, NC 27603-5925",Malcolm.Graham@ncleg.net,Senator Malcolm Graham  (Dem)
383,23,(919) 733-5804,http://www.ncleg.net/gascripts/members/viewMember.pl?nUserID=383&sChamber=senate,"Chatham,Orange",S,"NC Senate,300 N. Salisbury Street, Room 520
,Raleigh, NC 27603-5925",Valerie.Foushee@ncleg.net,Senator Valerie P. Foushee  (Dem)
230,5,(919) 715-8363,http://www.ncleg.net/gascripts/members/viewMember.pl?nUserID=230&sChamber=senate,"Greene,Lenoir,Pitt,Wayne",S,"NC Senate,300 N. Salisbury Street, Room 518
,Raleigh, NC 27603-5925",Don.Davis@ncleg.net,Senator Don Davis  (Dem)
357,50,(919) 733-5875,http://www.ncleg.net/gascripts/members/viewMember.pl?nUserID=357&sChamber=senate,"Cherokee,Clay,Graham,Haywood,Jackson,Macon,Swain",S,"NC Senate,16 W. Jones Street, Room 2111
,Raleigh, NC 27601-2808",Jim.Davis@ncleg.net,Senator Jim Davis  (Rep)
370,38,(919) 733-5955,http://www.ncleg.net/gascripts/members/viewMember.pl?nUserID=370&sChamber=senate,Mecklenburg,S,"NC Senate,16 W. Jones Street, Room 1119
,Raleigh, NC 27601-2808",Joel.Ford@ncleg.net,Senator Joel D. M. Ford  (Dem)
295,46,(919) 715-7823,http://www.ncleg.net/gascripts/members/viewMember.pl?nUserID=295&sChamber=senate,"Burke,Cleveland",S,"NC Senate,16 W. Jones Street, Room 1127
,Raleigh, NC 27601-2808",Warren.Daniel@ncleg.net,Senator Warren Daniel  (Rep)
381,1,(919) 715-8293,http://www.ncleg.net/gascripts/members/viewMember.pl?nUserID=381&sChamber=senate,"Beaufort,Camden,Currituck,Dare,Gates,Hyde,Pasquotank,Perquimans",S,"NC Senate,300 N. Salisbury Street, Room 525
,Raleigh, NC 27603-5925",Bill.Cook@ncleg.net,Senator Bill Cook  (Rep)
54,37,(919) 715-8331,http://www.ncleg.net/gascripts/members/viewMember.pl?nUserID=54&sChamber=senate,Mecklenburg,S,"NC Senate,300 N. Salisbury Street, Room 620
,Raleigh, NC 27603-5925",Daniel.Clodfelter@ncleg.net,Senator Daniel G. Clodfelter  (Dem)
378,44,(919) 715-3038,http://www.ncleg.net/gascripts/members/viewMember.pl?nUserID=378&sChamber=senate,"Gaston,Iredell,Lincoln",S,"NC Senate,300 N. Salisbury Street, Room 410
,Raleigh, NC 27603-5925",David.Curtis@ncleg.net,Senator David L. Curtis  (Rep)
382,4,(919) 733-5878,http://www.ncleg.net/gascripts/members/viewMember.pl?nUserID=382&sChamber=senate,"Halifax,Nash,Vance,Warren,Wilson",S,"NC Senate,300 N. Salisbury Street, Room 516
,Raleigh, NC 27603-5925",Angela.Bryant@ncleg.net,Senator Angela R. Bryant  (Dem)
380,21,(919) 733-9349,http://www.ncleg.net/gascripts/members/viewMember.pl?nUserID=380&sChamber=senate,"Cumberland,Hoke",S,"NC Senate,16 W. Jones Street, Room 1121
,Raleigh, NC 27601-2808",Ben.Clark@ncleg.net,Senator Ben Clark  (Dem)
223,,,http://www.ncleg.net/gascripts/members/viewMember.pl?nUserID=223&sChamber=senate,,S,,,Senator Peter S. Brunstetter  (Rep)
63,33,(919) 733-5665,http://www.ncleg.net/gascripts/members/viewMember.pl?nUserID=63&sChamber=senate,"Davidson,Montgomery",S,"NC Senate,16 W. Jones Street, Room 2117
,Raleigh, NC 27601-2808",Stan.Bingham@ncleg.net,Senator Stan Bingham  (Rep)
268,14,(919) 733-5752,http://www.ncleg.net/gascripts/members/viewMember.pl?nUserID=268&sChamber=senate,Wake,S,"NC Senate,16 W. Jones Street, Room 1117
,Raleigh, NC 27601-2808",Dan.Blue@ncleg.net,Senator Dan Blue  (Dem)
104,34,(919) 715-0690,http://www.ncleg.net/gascripts/members/viewMember.pl?nUserID=104&sChamber=senate,"Davie,Iredell,Rowan",S,"NC Senate,300 N. Salisbury Street, Room 521
,Raleigh, NC 27603-5925",Andrew.Brock@ncleg.net,Senator Andrew C. Brock  (Rep)
64,26,(919) 733-5708,http://www.ncleg.net/gascripts/members/viewMember.pl?nUserID=64&sChamber=senate,"Guilford,Rockingham",S,"NC Senate,16 W. Jones Street, Room 2008
,Raleigh, NC 27601-2808",Phil.Berger@ncleg.net,Senator Phil Berger  (Rep)
139,6,(919) 715-3034,http://www.ncleg.net/gascripts/members/viewMember.pl?nUserID=139&sChamber=senate,"Jones,Onslow",S,"NC Senate,300 N. Salisbury Street, Room 300-B
,Raleigh, NC 27603-5925",Harry.Brown@ncleg.net,Senator Harry Brown  (Rep)
2,42,(919) 733-5876,http://www.ncleg.net/gascripts/members/viewMember.pl?nUserID=2&sChamber=senate,"Alexander,Catawba",S,"NC Senate,300 N. Salisbury Street, Room 625
,Raleigh, NC 27603-5925",Austin.Allran@ncleg.net,Senator Austin M. Allran  (Rep)
369,18,(919) 715-3036,http://www.ncleg.net/gascripts/members/viewMember.pl?nUserID=369&sChamber=senate,"Franklin,Wake",S,"NC Senate,300 N. Salisbury Street, Room 623
,Raleigh, NC 27603-5925",Chad.Barefoot@ncleg.net,Senator Chad Barefoot  (Rep)
83,48,(919) 733-5745,http://www.ncleg.net/gascripts/members/viewMember.pl?nUserID=83&sChamber=senate,"Buncombe,Henderson,Transylvania",S,"NC Senate,16 W. Jones Street, Room 2010
,Raleigh, NC 27601-2808",Tom.Apodaca@ncleg.net,Senator Tom Apodaca  (Rep)
503,2,919-715-0850,http://www.ncleg.net/gascripts/members/viewMember.pl?nUserID=503&sChamber=House,"Granville,Person",H,"NC House of Representatives,16 W. Jones Street, Room 1301
,Raleigh, NC 27601-1096",Winkie.Wilkins@ncleg.net,Representative W. A. (Winkie) Wilkins  (Dem)
481,27,919-733-5662,http://www.ncleg.net/gascripts/members/viewMember.pl?nUserID=481&sChamber=House,"Halifax,Northampton",H,"NC House of Representatives,300 N. Salisbury Street, Room 503
,Raleigh, NC 27603-5925",Michael.Wray@ncleg.net,Representative Michael H. Wray  (Dem)
682,80,919-715-2526,http://www.ncleg.net/gascripts/members/viewMember.pl?nUserID=682&sChamber=House,Davidson,H,"NC House of Representatives,16 W. Jones Street, Room 1206
,Raleigh, NC 27601-1096",Roger.Younts@ncleg.net,Representative Roger Younts  (Rep)
368,17,(919) 733-5653,http://www.ncleg.net/gascripts/members/viewMember.pl?nUserID=368&sChamber=senate,Wake,S,"NC Senate,300 N. Salisbury Street, Room 411
,Raleigh, NC 27603-5925",Tamara.Barringer@ncleg.net,Senator Tamara Barringer  (Rep)
660,113,919-715-4466,http://www.ncleg.net/gascripts/members/viewMember.pl?nUserID=660&sChamber=House,"Henderson,Polk,Transylvania",H,"NC House of Representatives,300 N. Salisbury Street, Room 537
,Raleigh, NC 27603-5925",Chris.Whitmire@ncleg.net,Representative Chris Whitmire  (Rep)
658,84,919-733-5661,http://www.ncleg.net/gascripts/members/viewMember.pl?nUserID=658&sChamber=House,Iredell,H,"NC House of Representatives,16 W. Jones Street, Room 1104
,Raleigh, NC 27601-1096",Rena.Turner@ncleg.net,Representative Rena W. Turner  (Rep)
630,77,919-733-5784,http://www.ncleg.net/gascripts/members/viewMember.pl?nUserID=630&sChamber=House,Rowan,H,"NC House of Representatives,300 N. Salisbury Street, Room 611
,Raleigh, NC 27603-5925",Harry.Warren@ncleg.net,Representative Harry Warren  (Rep)
606,108,919-733-5868,http://www.ncleg.net/gascripts/members/viewMember.pl?nUserID=606&sChamber=House,Gaston,H,"NC House of Representatives,300 N. Salisbury Street, Room 538
,Raleigh, NC 27603-5925",John.Torbett@ncleg.net,Representative John A. Torbett  (Rep)
652,96,919-733-5988,http://www.ncleg.net/gascripts/members/viewMember.pl?nUserID=652&sChamber=House,Catawba,H,"NC House of Representatives,16 W. Jones Street, Room 2221
,Raleigh, NC 27601-1096",Andy.Wells@ncleg.net,Representative Andy Wells  (Rep)
673,46,919-733-5821,http://www.ncleg.net/gascripts/members/viewMember.pl?nUserID=673&sChamber=House,"Bladen,Columbus,Robeson",H,"NC House of Representatives,16 W. Jones Street, Room 1311
,Raleigh, NC 27601-1096",Ken.Waddell@ncleg.net,Representative Ken Waddell  (Dem)
654,6,919-733-5906,http://www.ncleg.net/gascripts/members/viewMember.pl?nUserID=654&sChamber=House,"Beaufort,Dare,Hyde,Washington",H,"NC House of Representatives,16 W. Jones Street, Room 1307
,Raleigh, NC 27601-1096",Paul.Tine@ncleg.net,Representative Paul Tine  (Dem)
48,23,919-715-3024,http://www.ncleg.net/gascripts/members/viewMember.pl?nUserID=48&sChamber=House,"Edgecombe,Martin",H,"NC House of Representatives,300 N. Salisbury Street, Room 510
,Raleigh, NC 27603-5925",Joe.Tolson@ncleg.net,Representative Joe P. Tolson  (Dem)
267,120,919-733-5859,http://www.ncleg.net/gascripts/members/viewMember.pl?nUserID=267&sChamber=House,"Cherokee,Clay,Graham,Macon",H,"NC House of Representatives,16 W. Jones Street, Room 1229
,Raleigh, NC 27601-1096",Roger.West@ncleg.net,Representative Roger West  (Rep)
309,37,919-733-2962,http://www.ncleg.net/gascripts/members/viewMember.pl?nUserID=309&sChamber=House,Wake,H,"NC House of Representatives,300 N. Salisbury Street, Room 612
,Raleigh, NC 27603-5925",Paul.Stam@ncleg.net,Representative Paul Stam  (Rep)
565,98,919-733-3451,http://www.ncleg.net/gascripts/members/viewMember.pl?nUserID=565&sChamber=House,Mecklenburg,H,"NC House of Representatives,16 W. Jones Street, Room 2304
,Raleigh, NC 27601-1096",Thom.Tillis@ncleg.net,Representative Thom Tillis  (Rep)
666,1,919-733-0010,http://www.ncleg.net/gascripts/members/viewMember.pl?nUserID=666&sChamber=House,"Camden,Chowan,Currituck,Pasquotank,Perquimans,Tyrrell",H,"NC House of Representatives,300 N. Salisbury Street, Room 306A2
,Raleigh, NC 27603-5925",Bob.Steinburg@ncleg.net,Representative Bob Steinburg  (Rep)
592,90,919-715-1883,http://www.ncleg.net/gascripts/members/viewMember.pl?nUserID=592&sChamber=House,"Surry,Wilkes",H,"NC House of Representatives,300 N. Salisbury Street, Room 635
,Raleigh, NC 27603-5925",Sarah.Stevens@ncleg.net,Representative Sarah Stevens  (Rep)
676,71,919-733-5777,http://www.ncleg.net/gascripts/members/viewMember.pl?nUserID=676&sChamber=House,Forsyth,H,"NC House of Representatives,16 W. Jones Street, Room 1015
,Raleigh, NC 27601-1096",Evelyn.Terry@ncleg.net,Representative Evelyn Terry  (Dem)
91,87,919-733-5931,http://www.ncleg.net/gascripts/members/viewMember.pl?nUserID=91&sChamber=House,Caldwell,H,"NC House of Representatives,300 N. Salisbury Street, Room 301F
,Raleigh, NC 27603-5925",Edgar.Starnes@ncleg.net,Representative Edgar V. Starnes  (Rep)
629,51,919-715-3026,http://www.ncleg.net/gascripts/members/viewMember.pl?nUserID=629&sChamber=House,"Harnett,Lee",H,"NC House of Representatives,300 N. Salisbury Street, Room 529
,Raleigh, NC 27603-5925",Michael.Stone@ncleg.net,Representative Mike C. Stone  (Rep)
662,45,919-733-9892,http://www.ncleg.net/gascripts/members/viewMember.pl?nUserID=662&sChamber=House,Cumberland,H,"NC House of Representatives,16 W. Jones Street, Room 2223
,Raleigh, NC 27601-1096",John.Szoka@ncleg.net,Representative John Szoka  (Rep)
632,97,919-733-5782,http://www.ncleg.net/gascripts/members/viewMember.pl?nUserID=632&sChamber=House,Lincoln,H,"NC House of Representatives,300 N. Salisbury Street, Room 402
,Raleigh, NC 27603-5925",Jason.Saine@ncleg.net,Representative Jason Saine  (Rep)
664,63,919-733-5820,http://www.ncleg.net/gascripts/members/viewMember.pl?nUserID=664&sChamber=House,Alamance,H,"NC House of Representatives,16 W. Jones Street, Room 1010
,Raleigh, NC 27601-1096",Stephen.Ross@ncleg.net,Representative Stephen M. Ross  (Rep)
647,105,919-733-5886,http://www.ncleg.net/gascripts/members/viewMember.pl?nUserID=647&sChamber=House,Mecklenburg,H,"NC House of Representatives,16 W. Jones Street, Room 1323
,Raleigh, NC 27601-1096",Jacqueline.Schaffer@ncleg.net,Representative Jacqueline Michelle Schaffer  (Rep)
628,15,919-715-9644,http://www.ncleg.net/gascripts/members/viewMember.pl?nUserID=628&sChamber=House,Onslow,H,"NC House of Representatives,300 N. Salisbury Street, Room 530
,Raleigh, NC 27603-5925",Phil.Shepard@ncleg.net,Representative Phil Shepard  (Rep)
149,89,919-733-4948,http://www.ncleg.net/gascripts/members/viewMember.pl?nUserID=149&sChamber=House,Catawba,H,"NC House of Representatives,16 W. Jones Street, Room 2204
,Raleigh, NC 27601-1096",Mitchell.Setzer@ncleg.net,Representative Mitchell S. Setzer  (Rep)
563,104,919-715-3009,http://www.ncleg.net/gascripts/members/viewMember.pl?nUserID=563&sChamber=House,Mecklenburg,H,"NC House of Representatives,16 W. Jones Street, Room 2226
,Raleigh, NC 27601-1096",Ruth.Samuelson@ncleg.net,Representative Ruth Samuelson  (Rep)
671,3,919-733-5853,http://www.ncleg.net/gascripts/members/viewMember.pl?nUserID=671&sChamber=House,"Beaufort,Craven,Pamlico",H,"NC House of Representatives,16 W. Jones Street, Room 1008
,Raleigh, NC 27601-1096",Michael.Speciale@ncleg.net,Representative Michael Speciale  (Rep)
311,,,http://www.ncleg.net/gascripts/members/viewMember.pl?nUserID=311&sChamber=House,,H,,,Representative Deborah K. Ross  (Dem)
665,64,919-733-5905,http://www.ncleg.net/gascripts/members/viewMember.pl?nUserID=665&sChamber=House,Alamance,H,"NC House of Representatives,300 N. Salisbury Street, Room 533
,Raleigh, NC 27603-5925",Dennis.Riddell@ncleg.net,Representative Dennis Riddell  (Rep)
653,115,919-733-5746,http://www.ncleg.net/gascripts/members/viewMember.pl?nUserID=653&sChamber=House,Buncombe,H,"NC House of Representatives,16 W. Jones Street, Room 1004
,Raleigh, NC 27601-1096",Nathan.Ramsey@ncleg.net,Representative Nathan Ramsey  (Rep)
670,118,919-733-5732,http://www.ncleg.net/gascripts/members/viewMember.pl?nUserID=670&sChamber=House,"Haywood,Madison,Yancey",H,"NC House of Representatives,16 W. Jones Street, Room 1025
,Raleigh, NC 27601-1096",Michele.Presnell@ncleg.net,Representative Michele D. Presnell  (Rep)
680,7,919-715-3032,http://www.ncleg.net/gascripts/members/viewMember.pl?nUserID=680&sChamber=House,"Franklin,Nash",H,"NC House of Representatives,16 W. Jones Street, Room 1209
,Raleigh, NC 27601-1096",Bobbie.Richardson@ncleg.net,Representative Bobbie Richardson  (Dem)
633,82,919-715-2009,http://www.ncleg.net/gascripts/members/viewMember.pl?nUserID=633&sChamber=House,Cabarrus,H,"NC House of Representatives,16 W. Jones Street, Room 1321
,Raleigh, NC 27601-1096",Larry.Pittman@ncleg.net,Representative Larry G. Pittman  (Rep)
669,119,919-715-3005,http://www.ncleg.net/gascripts/members/viewMember.pl?nUserID=669&sChamber=House,"Haywood,Jackson,Swain",H,"NC House of Representatives,16 W. Jones Street, Room 1017
,Raleigh, NC 27601-1096",Joe.Queen@ncleg.net,Representative Joe Sam Queen  (Dem)
497,48,919-733-5803,http://www.ncleg.net/gascripts/members/viewMember.pl?nUserID=497&sChamber=House,"Hoke,Richmond,Robeson,Scotland",H,"NC House of Representatives,16 W. Jones Street, Room 1204
,Raleigh, NC 27601-1096",Garland.Pierce@ncleg.net,Representative Garland E. Pierce  (Dem)
625,41,919-733-5602,http://www.ncleg.net/gascripts/members/viewMember.pl?nUserID=625&sChamber=House,Wake,H,"NC House of Representatives,16 W. Jones Street, Room 2121
,Raleigh, NC 27601-1096",Tom.Murry@ncleg.net,Representative Tom Murry  (Rep)
683,50,919-715-3019,http://www.ncleg.net/gascripts/members/viewMember.pl?nUserID=683&sChamber=House,"Durham,Orange",H,"NC House of Representatives,16 W. Jones Street, Room 1111
,Raleigh, NC 27601-1096",Graig.Meyer@ncleg.net,Representative Graig R. Meyer  (Dem)
339,111,919-733-4838,http://www.ncleg.net/gascripts/members/viewMember.pl?nUserID=339&sChamber=House,Cleveland,H,"NC House of Representatives,16 W. Jones Street, Room 2301
,Raleigh, NC 27601-1096",Tim.Moore@ncleg.net,Representative Tim Moore  (Rep)
624,99,919-733-5606,http://www.ncleg.net/gascripts/members/viewMember.pl?nUserID=624&sChamber=House,Mecklenburg,H,"NC House of Representatives,16 W. Jones Street, Room 1213
,Raleigh, NC 27601-1096",Rodney.Moore@ncleg.net,Representative Rodney W. Moore  (Dem)
71,31,919-715-2528,http://www.ncleg.net/gascripts/members/viewMember.pl?nUserID=71&sChamber=House,Durham,H,"NC House of Representatives,16 W. Jones Street, Room 1227
,Raleigh, NC 27601-1096",Mickey.Michaux@ncleg.net,"Representative Henry M. Michaux, Jr.  (Dem)"
623,116,919-715-3012,http://www.ncleg.net/gascripts/members/viewMember.pl?nUserID=623&sChamber=House,Buncombe,H,"NC House of Representatives,16 W. Jones Street, Room 2119
,Raleigh, NC 27601-1096",Tim.Moffitt@ncleg.net,Representative Tim D. Moffitt  (Rep)
635,78,919-715-4946,http://www.ncleg.net/gascripts/members/viewMember.pl?nUserID=635&sChamber=House,"Moore,Randolph",H,"NC House of Representatives,300 N. Salisbury Street, Room 418C
,Raleigh, NC 27603-5925",Allen.McNeill@ncleg.net,Representative Allen McNeill  (Rep)
639,16,919-715-9664,http://www.ncleg.net/gascripts/members/viewMember.pl?nUserID=639&sChamber=House,"Onslow,Pender",H,"NC House of Representatives,300 N. Salisbury Street, Room 609
,Raleigh, NC 27603-5925",Chris.Millis@ncleg.net,Representative Chris Millis  (Rep)
575,5,919-733-5780,http://www.ncleg.net/gascripts/members/viewMember.pl?nUserID=575&sChamber=House,"Bertie,Gates,Hertford,Pasquotank",H,"NC House of Representatives,300 N. Salisbury Street, Room 501
,Raleigh, NC 27603-5925",Annie.Mobley@ncleg.net,Representative Annie W. Mobley  (Dem)
216,42,919-733-5775,http://www.ncleg.net/gascripts/members/viewMember.pl?nUserID=216&sChamber=House,Cumberland,H,"NC House of Representatives,300 N. Salisbury Street, Room 509
,Raleigh, NC 27603-5925",Marvin.Lucas@ncleg.net,Representative Marvin W. Lucas  (Dem)
605,117,919-733-5956,http://www.ncleg.net/gascripts/members/viewMember.pl?nUserID=605&sChamber=House,Henderson,H,"NC House of Representatives,300 N. Salisbury Street, Room 419B
,Raleigh, NC 27603-5925",Chuck.McGrady@ncleg.net,Representative Chuck McGrady  (Rep)
656,,,http://www.ncleg.net/gascripts/members/viewMember.pl?nUserID=656&sChamber=House,,H,,,Representative Deb McManus  (Dem)
63,30,919-733-7663,http://www.ncleg.net/gascripts/members/viewMember.pl?nUserID=63&sChamber=House,Durham,H,"NC House of Representatives,300 N. Salisbury Street, Room 513
,Raleigh, NC 27603-5925",Paul.Luebke@ncleg.net,Representative Paul Luebke  (Dem)
570,13,919-733-6275,http://www.ncleg.net/gascripts/members/viewMember.pl?nUserID=570&sChamber=House,"Carteret,Jones",H,"NC House of Representatives,300 N. Salisbury Street, Room 634
,Raleigh, NC 27603-5925",Pat.McElraft@ncleg.net,Representative Pat McElraft  (Rep)
667,8,919-715-3023,http://www.ncleg.net/gascripts/members/viewMember.pl?nUserID=667&sChamber=House,"Pitt,Wilson",H,"NC House of Representatives,300 N. Salisbury Street, Room 306C
,Raleigh, NC 27603-5925",Susan.Martin@ncleg.net,Representative Susan Martin  (Rep)
487,34,919-733-5773,http://www.ncleg.net/gascripts/members/viewMember.pl?nUserID=487&sChamber=House,Wake,H,"NC House of Representatives,16 W. Jones Street, Room 1023
,Raleigh, NC 27601-1096",Grier.Martin@ncleg.net,Representative Grier Martin  (Dem)
648,35,919-715-3010,http://www.ncleg.net/gascripts/members/viewMember.pl?nUserID=648&sChamber=House,Wake,H,"NC House of Representatives,300 N. Salisbury Street, Room 603
,Raleigh, NC 27603-5925",Chris.Malone@ncleg.net,Representative Chris Malone  (Rep)
482,28,919-733-5849,http://www.ncleg.net/gascripts/members/viewMember.pl?nUserID=482&sChamber=House,Johnston,H,"NC House of Representatives,300 N. Salisbury Street, Room 417B
,Raleigh, NC 27603-5925",James.Langdon@ncleg.net,"Representative James H. Langdon, Jr.  (Rep)"
617,18,919-733-5754,http://www.ncleg.net/gascripts/members/viewMember.pl?nUserID=617&sChamber=House,"Brunswick,New Hanover",H,"NC House of Representatives,16 W. Jones Street, Room 1313
,Raleigh, NC 27601-1096",Susi.Hamilton@ncleg.net,Representative Susi H. Hamilton  (Dem)
572,29,919-733-5872,http://www.ncleg.net/gascripts/members/viewMember.pl?nUserID=572&sChamber=House,Durham,H,"NC House of Representatives,300 N. Salisbury Street, Room 506
,Raleigh, NC 27603-5925",Larry.Hall@ncleg.net,Representative Larry D. Hall  (Dem)
389,53,919-715-3015,http://www.ncleg.net/gascripts/members/viewMember.pl?nUserID=389&sChamber=House,Harnett,H,"NC House of Representatives,16 W. Jones Street, Room 1326
,Raleigh, NC 27601-1096",David.Lewis@ncleg.net,Representative David R. Lewis  (Rep)
504,57,919-733-5771,http://www.ncleg.net/gascripts/members/viewMember.pl?nUserID=504&sChamber=House,Guilford,H,"NC House of Representatives,16 W. Jones Street, Room 1218
,Raleigh, NC 27601-1096",Pricey.Harrison@ncleg.net,Representative Pricey Harrison  (Dem)
674,72,919-733-5829,http://www.ncleg.net/gascripts/members/viewMember.pl?nUserID=674&sChamber=House,Forsyth,H,"NC House of Representatives,16 W. Jones Street, Room 1305
,Raleigh, NC 27601-1096",Edward.Hanes@ncleg.net,"Representative Edward Hanes, Jr.  (Dem)"
645,59,919-733-5191,http://www.ncleg.net/gascripts/members/viewMember.pl?nUserID=645&sChamber=House,Guilford,H,"NC House of Representatives,300 N. Salisbury Street, Room 632
,Raleigh, NC 27603-5925",Jon.Hardister@ncleg.net,Representative Jon Hardister  (Rep)
679,11,919-733-5755,http://www.ncleg.net/gascripts/members/viewMember.pl?nUserID=679&sChamber=House,Wake,H,"NC House of Representatives,16 W. Jones Street, Room 1019
,Raleigh, NC 27601-1096",Duane.Hall@ncleg.net,Representative Duane Hall  (Dem)
651,49,919-733-5860,http://www.ncleg.net/gascripts/members/viewMember.pl?nUserID=651&sChamber=House,Wake,H,"NC House of Representatives,300 N. Salisbury Street, Room 602
,Raleigh, NC 27603-5925",Jim.Fulghum@ncleg.net,"Representative Jim Fulghum, M.D.  (Rep)"
614,66,919-733-5823,http://www.ncleg.net/gascripts/members/viewMember.pl?nUserID=614&sChamber=House,"Hoke,Montgomery,Richmond,Robeson,Scotland",H,"NC House of Representatives,300 N. Salisbury Street, Room 542
,Raleigh, NC 27603-5925",Ken.Goodman@ncleg.net,Representative Ken Goodman  (Dem)
317,44,919-733-5601,http://www.ncleg.net/gascripts/members/viewMember.pl?nUserID=317&sChamber=House,Cumberland,H,"NC House of Representatives,16 W. Jones Street, Room 1021
,Raleigh, NC 27601-1096",Rick.Glazier@ncleg.net,Representative Rick Glazier  (Dem)
615,47,919-715-0875,http://www.ncleg.net/gascripts/members/viewMember.pl?nUserID=615&sChamber=House,Robeson,H,"NC House of Representatives,16 W. Jones Street, Room 1309
,Raleigh, NC 27601-1096",Charles.Graham@ncleg.net,Representative Charles Graham  (Dem)
616,112,919-733-5749,http://www.ncleg.net/gascripts/members/viewMember.pl?nUserID=616&sChamber=House,"Burke,Rutherford",H,"NC House of Representatives,300 N. Salisbury Street, Room 304
,Raleigh, NC 27603-5925",Mike.Hager@ncleg.net,Representative Mike Hager  (Rep)
672,12,919-733-5995,http://www.ncleg.net/gascripts/members/viewMember.pl?nUserID=672&sChamber=House,"Craven,Greene,Lenoir",H,"NC House of Representatives,16 W. Jones Street, Room 1317
,Raleigh, NC 27601-1096",George.Graham@ncleg.net,Representative George Graham  (Dem)
597,33,919-733-5880,http://www.ncleg.net/gascripts/members/viewMember.pl?nUserID=597&sChamber=House,Wake,H,"NC House of Representatives,16 W. Jones Street, Room 1303
,Raleigh, NC 27601-1096",Rosa.Gill@ncleg.net,Representative Rosa U. Gill  (Dem)
157,,,http://www.ncleg.net/gascripts/members/viewMember.pl?nUserID=157&sChamber=House,,H,,,Representative Mitch Gillespie  (Rep)
644,76,919-733-5881,http://www.ncleg.net/gascripts/members/viewMember.pl?nUserID=644&sChamber=House,"Cabarrus,Rowan",H,"NC House of Representatives,300 N. Salisbury Street, Room 607
,Raleigh, NC 27603-5925",Carl.Ford@ncleg.net,Representative Carl Ford  (Rep)
643,94,919-733-5935,http://www.ncleg.net/gascripts/members/viewMember.pl?nUserID=643&sChamber=House,"Alleghany,Wilkes",H,"NC House of Representatives,300 N. Salisbury Street, Room 306A3
,Raleigh, NC 27603-5925",Jeffrey.Elmore@ncleg.net,Representative Jeffrey Elmore  (Rep)
603,61,919-733-5877,http://www.ncleg.net/gascripts/members/viewMember.pl?nUserID=603&sChamber=House,Guilford,H,"NC House of Representatives,300 N. Salisbury Street, Room 613
,Raleigh, NC 27603-5925",John.Faircloth@ncleg.net,Representative John Faircloth  (Rep)
583,43,919-733-5959,http://www.ncleg.net/gascripts/members/viewMember.pl?nUserID=583&sChamber=House,Cumberland,H,"NC House of Representatives,16 W. Jones Street, Room 1325
,Raleigh, NC 27601-1096",Elmer.Floyd@ncleg.net,Representative Elmer Floyd  (Dem)
34,101,919-715-2530,http://www.ncleg.net/gascripts/members/viewMember.pl?nUserID=34&sChamber=House,Mecklenburg,H,"NC House of Representatives,300 N. Salisbury Street, Room 514
,Raleigh, NC 27603-5925",Beverly.Earle@ncleg.net,Representative Beverly M. Earle  (Dem)
463,114,919-715-2013,http://www.ncleg.net/gascripts/members/viewMember.pl?nUserID=463&sChamber=House,Buncombe,H,"NC House of Representatives,300 N. Salisbury Street, Room 504
,Raleigh, NC 27603-5925",Susan.Fisher@ncleg.net,Representative Susan C. Fisher  (Dem)
379,24,919-733-5898,http://www.ncleg.net/gascripts/members/viewMember.pl?nUserID=379&sChamber=House,"Pitt,Wilson",H,"NC House of Representatives,16 W. Jones Street, Room 1220
,Raleigh, NC 27601-1096",Jean.Farmer-Butterfield@ncleg.net,Representative Jean Farmer-Butterfield  (Dem)
657,,,http://www.ncleg.net/gascripts/members/viewMember.pl?nUserID=657&sChamber=House,,H,,,Representative Valerie P. Foushee  (Dem)
489,36,919-715-0795,http://www.ncleg.net/gascripts/members/viewMember.pl?nUserID=489&sChamber=House,Wake,H,"NC House of Representatives,300 N. Salisbury Street, Room 307B1
,Raleigh, NC 27603-5925",Nelson.Dollar@ncleg.net,Representative Nelson Dollar  (Rep)
637,19,919-733-5786,http://www.ncleg.net/gascripts/members/viewMember.pl?nUserID=637&sChamber=House,New Hanover,H,"NC House of Representatives,300 N. Salisbury Street, Room 418B
,Raleigh, NC 27603-5925",Ted.Davis@ncleg.net,"Representative Ted Davis, Jr.  (Rep)"
613,4,919-715-3021,http://www.ncleg.net/gascripts/members/viewMember.pl?nUserID=613&sChamber=House,"Duplin,Wayne",H,"NC House of Representatives,300 N. Salisbury Street, Room 416B
,Raleigh, NC 27603-5925",Jimmy.Dixon@ncleg.net,Representative Jimmy Dixon  (Rep)
26,26,919-733-5605,http://www.ncleg.net/gascripts/members/viewMember.pl?nUserID=26&sChamber=House,Johnston,H,"NC House of Representatives,16 W. Jones Street, Room 2207
,Raleigh, NC 27601-1096",Leo.Daughtry@ncleg.net,Representative N. Leo Daughtry  (Rep)
33,,,http://www.ncleg.net/gascripts/members/viewMember.pl?nUserID=33&sChamber=House,,H,,,Representative Jerry C. Dockham  (Rep)
642,106,919-733-5807,http://www.ncleg.net/gascripts/members/viewMember.pl?nUserID=642&sChamber=House,Mecklenburg,H,"NC House of Representatives,16 W. Jones Street, Room 1109
,Raleigh, NC 27601-1096",Carla.Cunningham@ncleg.net,Representative Carla D. Cunningham  (Dem)
681,85,919-733-5862,http://www.ncleg.net/gascripts/members/viewMember.pl?nUserID=681&sChamber=House,"Avery,McDowell,Mitchell",H,"NC House of Representatives,16 W. Jones Street, Room 1006
,Raleigh, NC 27601-1096",Josh.Dobson@ncleg.net,Representative Josh Dobson  (Rep)
576,100,919-715-0706,http://www.ncleg.net/gascripts/members/viewMember.pl?nUserID=576&sChamber=House,Mecklenburg,H,"NC House of Representatives,300 N. Salisbury Street, Room 403
,Raleigh, NC 27603-5925",Tricia.Cotham@ncleg.net,Representative Tricia Ann Cotham  (Dem)
322,102,919-733-5827,http://www.ncleg.net/gascripts/members/viewMember.pl?nUserID=322&sChamber=House,Mecklenburg,H,"NC House of Representatives,16 W. Jones Street, Room 1221
,Raleigh, NC 27601-1096",Becky.Carney@ncleg.net,Representative Becky Carney  (Dem)
668,20,919-733-5830,http://www.ncleg.net/gascripts/members/viewMember.pl?nUserID=668&sChamber=House,New Hanover,H,"NC House of Representatives,300 N. Salisbury Street, Room 638
,Raleigh, NC 27603-5925",Rick.Catlin@ncleg.net,Representative Rick Catlin  (Rep)
476,14,919-715-6707,http://www.ncleg.net/gascripts/members/viewMember.pl?nUserID=476&sChamber=House,Onslow,H,"NC House of Representatives,300 N. Salisbury Street, Room 417A
,Raleigh, NC 27603-5925",George.Cleveland@ncleg.net,Representative George G. Cleveland  (Rep)
659,109,919-733-5809,http://www.ncleg.net/gascripts/members/viewMember.pl?nUserID=659&sChamber=House,Gaston,H,"NC House of Representatives,300 N. Salisbury Street, Room 608
,Raleigh, NC 27603-5925",Dana.Bumgardner@ncleg.net,Representative Dana Bumgardner  (Rep)
582,67,919-733-5908,http://www.ncleg.net/gascripts/members/viewMember.pl?nUserID=582&sChamber=House,"Montgomery,Stanly",H,"NC House of Representatives,300 N. Salisbury Street, Room 307A
,Raleigh, NC 27603-5925",Justin.Burr@ncleg.net,Representative Justin P. Burr  (Rep)
574,,,http://www.ncleg.net/gascripts/members/viewMember.pl?nUserID=574&sChamber=House,,H,,,Representative Angela R. Bryant  (Dem)
611,25,919-733-5802,http://www.ncleg.net/gascripts/members/viewMember.pl?nUserID=611&sChamber=House,"Franklin,Nash",H,"NC House of Representatives,16 W. Jones Street, Room 1106
,Raleigh, NC 27601-1096",Jeff.Collins@ncleg.net,Representative Jeff Collins  (Rep)
675,74,919-733-5787,http://www.ncleg.net/gascripts/members/viewMember.pl?nUserID=675&sChamber=House,Forsyth,H,"NC House of Representatives,300 N. Salisbury Street, Room 606
,Raleigh, NC 27603-5925",Debra.Conrad@ncleg.net,Representative Debra Conrad  (Rep)
608,60,919-733-5825,http://www.ncleg.net/gascripts/members/viewMember.pl?nUserID=608&sChamber=House,Guilford,H,"NC House of Representatives,16 W. Jones Street, Room 1217
,Raleigh, NC 27601-1096",Marcus.Brandon@ncleg.net,Representative Marcus Brandon  (Dem)
641,95,919-733-5741,http://www.ncleg.net/gascripts/members/viewMember.pl?nUserID=641&sChamber=House,Iredell,H,"NC House of Representatives,300 N. Salisbury Street, Room 303
,Raleigh, NC 27603-5925",Robert.Brawley@ncleg.net,Representative C. Robert Brawley  (Rep)
655,9,919-733-5757,http://www.ncleg.net/gascripts/members/viewMember.pl?nUserID=655&sChamber=House,Pitt,H,"NC House of Representatives,300 N. Salisbury Street, Room 604
,Raleigh, NC 27603-5925",Brian.Brown@ncleg.net,Representative Brian Brown  (Rep)
663,55,919-715-3029,http://www.ncleg.net/gascripts/members/viewMember.pl?nUserID=663&sChamber=House,"Anson,Union",H,"NC House of Representatives,16 W. Jones Street, Room 2219
,Raleigh, NC 27601-1096",Mark.Brody@ncleg.net,Representative Mark Brody  (Rep)
678,88,919-733-5607,http://www.ncleg.net/gascripts/members/viewMember.pl?nUserID=678&sChamber=House,Mecklenburg,H,"NC House of Representatives,300 N. Salisbury Street, Room 536
,Raleigh, NC 27603-5925",Rob.Bryan@ncleg.net,Representative Rob Bryan  (Rep)
609,103,919-733-5800,http://www.ncleg.net/gascripts/members/viewMember.pl?nUserID=609&sChamber=House,Mecklenburg,H,"NC House of Representatives,300 N. Salisbury Street, Room 534
,Raleigh, NC 27603-5925",Bill.Brawley@ncleg.net,Representative William Brawley  (Rep)
558,22,919-733-5772,http://www.ncleg.net/gascripts/members/viewMember.pl?nUserID=558&sChamber=House,"Bladen,Johnston,Sampson",H,"NC House of Representatives,300 N. Salisbury Street, Room 405
,Raleigh, NC 27603-5925",William.Brisson@ncleg.net,Representative William D. Brisson  (Dem)
610,81,919-715-0873,http://www.ncleg.net/gascripts/members/viewMember.pl?nUserID=610&sChamber=House,Davidson,H,"NC House of Representatives,300 N. Salisbury Street, Room 633
,Raleigh, NC 27603-5925",Rayne.Brown@ncleg.net,Representative Rayne Brown  (Rep)
581,52,919-733-5903,http://www.ncleg.net/gascripts/members/viewMember.pl?nUserID=581&sChamber=House,Moore,H,"NC House of Representatives,300 N. Salisbury Street, Room 528
,Raleigh, NC 27603-5925",Jamie.Boles@ncleg.net,"Representative James L. Boles, Jr.  (Rep)"
301,21,919-733-5863,http://www.ncleg.net/gascripts/members/viewMember.pl?nUserID=301&sChamber=House,"Duplin,Sampson,Wayne",H,"NC House of Representatives,300 N. Salisbury Street, Room 508
,Raleigh, NC 27603-5925",Larry.Bell@ncleg.net,Representative Larry M. Bell  (Dem)
568,40,919-733-5530,http://www.ncleg.net/gascripts/members/viewMember.pl?nUserID=568&sChamber=House,Wake,H,"NC House of Representatives,16 W. Jones Street, Room 2217
,Raleigh, NC 27601-1096",Marilyn.Avila@ncleg.net,Representative Marilyn Avila  (Rep)
661,10,919-715-3017,http://www.ncleg.net/gascripts/members/viewMember.pl?nUserID=661&sChamber=House,"Craven,Greene,Lenoir,Wayne",H,"NC House of Representatives,300 N. Salisbury Street, Room 418A
,Raleigh, NC 27603-5925",John.Bell@ncleg.net,"Representative John R. Bell, IV  (Rep)"
640,69,919-715-3007,http://www.ncleg.net/gascripts/members/viewMember.pl?nUserID=640&sChamber=House,Union,H,"NC House of Representatives,300 N. Salisbury Street, Room 531
,Raleigh, NC 27603-5925",Dean.Arp@ncleg.net,Representative Dean Arp  (Rep)
649,32,919-733-5824,http://www.ncleg.net/gascripts/members/viewMember.pl?nUserID=649&sChamber=House,"Granville,Vance,Warren",H,"NC House of Representatives,16 W. Jones Street, Room 1315
,Raleigh, NC 27601-1096",Nathan.Baskerville@ncleg.net,Representative Nathan Baskerville  (Dem)
580,86,919-733-5805,http://www.ncleg.net/gascripts/members/viewMember.pl?nUserID=580&sChamber=House,Burke,H,"NC House of Representatives,300 N. Salisbury Street, Room 541
,Raleigh, NC 27603-5925",Hugh.Blackwell@ncleg.net,Representative Hugh Blackwell  (Rep)
234,62,919-733-5781,http://www.ncleg.net/gascripts/members/viewMember.pl?nUserID=234&sChamber=House,Guilford,H,"NC House of Representatives,16 W. Jones Street, Room 2208
,Raleigh, NC 27601-1096",John.Blust@ncleg.net,Representative John M. Blust  (Rep)
579,107,919-733-5778,http://www.ncleg.net/gascripts/members/viewMember.pl?nUserID=579&sChamber=House,Mecklenburg,H,"NC House of Representatives,300 N. Salisbury Street, Room 404
,Raleigh, NC 27603-5925",Kelly.Alexander@ncleg.net,"Representative Kelly M. Alexander, Jr.  (Dem)"
uid,district,phone,url,county,chamber,address,email,name
267,16,(919) 715-6400,http://www.ncleg.net/gascripts/members/viewMember.pl?nUserID=267&sChamber=senate,Wake,S,"NC Senate,16 W. Jones Street, Room 1113
,Raleigh, NC 27601-2808",Josh.Stein@ncleg.net,Senator Josh Stein  (Dem)
2,42,(919) 733-5876,http://www.ncleg.net/gascripts/members/viewMember.pl?nUserID=2&sChamber=senate,"Alexander,Catawba",S,"NC Senate,300 N. Salisbury Street, Room 625
,Raleigh, NC 27603-5925",Austin.Allran@ncleg.net,Senator Austin M. Allran  (Rep)
310,35,(919) 733-7659,http://www.ncleg.net/gascripts/members/viewMember.pl?nUserID=310&sChamber=senate,Union,S,"NC Senate,300 N. Salisbury Street, Room 311
,Raleigh, NC 27603-5925",Tommy.Tucker@ncleg.net,Senator Tommy Tucker  (Rep)
18,58,919-733-5902,http://www.ncleg.net/gascripts/members/viewMember.pl?nUserID=18&sChamber=House,Guilford,H,"NC House of Representatives,16 W. Jones Street, Room 1219
,Raleigh, NC 27601-1096",Alma.Adams@ncleg.net,Representative Alma Adams  (Dem)
99,29,(919) 733-5870,http://www.ncleg.net/gascripts/members/viewMember.pl?nUserID=99&sChamber=senate,"Moore,Randolph",S,"NC Senate,300 N. Salisbury Street, Room 627
,Raleigh, NC 27603-5925",Jerry.Tillman@ncleg.net,Senator Jerry W. Tillman  (Rep)
376,41,(919) 715-3050,http://www.ncleg.net/gascripts/members/viewMember.pl?nUserID=376&sChamber=senate,Mecklenburg,S,"NC Senate,16 W. Jones Street, Room 2115
,Raleigh, NC 27601-2808",Jeff.Tarte@ncleg.net,Senator Jeff Tarte  (Rep)
297,45,(919) 733-5742,http://www.ncleg.net/gascripts/members/viewMember.pl?nUserID=297&sChamber=senate,"Alleghany,Ashe,Avery,Caldwell,Watauga",S,"NC Senate,300 N. Salisbury Street, Room 310
,Raleigh, NC 27603-5925",Dan.Soucek@ncleg.net,Senator Dan Soucek  (Rep)
375,2,(919) 733-5706,http://www.ncleg.net/gascripts/members/viewMember.pl?nUserID=375&sChamber=senate,"Carteret,Craven,Pamlico",S,"NC Senate,300 N. Salisbury Street, Room 629
,Raleigh, NC 27603-5925",Norman.Sanderson@ncleg.net,Senator Norman W. Sanderson  (Rep)
11,39,(919) 733-5655,http://www.ncleg.net/gascripts/members/viewMember.pl?nUserID=11&sChamber=senate,Mecklenburg,S,"NC Senate,300 N. Salisbury Street, Room 300-A
,Raleigh, NC 27603-5925",Bob.Rucho@ncleg.net,Senator Bob Rucho  (Rep)
364,28,(919) 715-3042,http://www.ncleg.net/gascripts/members/viewMember.pl?nUserID=364&sChamber=senate,Guilford,S,"NC Senate,16 W. Jones Street, Room 1120
,Raleigh, NC 27601-2808",Gladys.Robinson@ncleg.net,Senator Gladys A. Robinson  (Dem)
374,30,(919) 733-5743,http://www.ncleg.net/gascripts/members/viewMember.pl?nUserID=374&sChamber=senate,"Stokes,Surry,Wilkes",S,"NC Senate,300 N. Salisbury Street, Room 308
,Raleigh, NC 27603-5925",Shirley.Randleman@ncleg.net,Senator Shirley B. Randleman  (Rep)
303,8,(919) 733-5963,http://www.ncleg.net/gascripts/members/viewMember.pl?nUserID=303&sChamber=senate,"Bladen,Brunswick,New Hanover,Pender",S,"NC Senate,16 W. Jones Street, Room 2108
,Raleigh, NC 27601-2808",Bill.Rabon@ncleg.net,Senator Bill Rabon  (Rep)
273,7,(919) 733-5621,http://www.ncleg.net/gascripts/members/viewMember.pl?nUserID=273&sChamber=senate,"Lenoir,Pitt,Wayne",S,"NC Senate,16 W. Jones Street, Room 1028
,Raleigh, NC 27601-2808",Louis.Pate@ncleg.net,Senator Louis Pate  (Rep)
373,12,(919) 733-5748,http://www.ncleg.net/gascripts/members/viewMember.pl?nUserID=373&sChamber=senate,"Harnett,Johnston,Lee",S,"NC Senate,300 N. Salisbury Street, Room 526
,Raleigh, NC 27603-5925",Ron.Rabin@ncleg.net,Senator Ronald J. Rabin  (Rep)
372,32,(919) 733-5620,http://www.ncleg.net/gascripts/members/viewMember.pl?nUserID=372&sChamber=senate,Forsyth,S,"NC Senate,300 N. Salisbury Street, Room 519
,Raleigh, NC 27603-5925",Earline.Parmon@ncleg.net,Senator Earline W. Parmon  (Dem)
362,11,(919) 715-3030,http://www.ncleg.net/gascripts/members/viewMember.pl?nUserID=362&sChamber=senate,"Johnston,Nash,Wilson",S,"NC Senate,300 N. Salisbury Street, Room 408
,Raleigh, NC 27603-5925",Buck.Newton@ncleg.net,Senator E. S. (Buck) Newton  (Rep)
481,27,919-733-5662,http://www.ncleg.net/gascripts/members/viewMember.pl?nUserID=481&sChamber=House,"Halifax,Northampton",H,"NC House of Representatives,300 N. Salisbury Street, Room 503
,Raleigh, NC 27603-5925",Michael.Wray@ncleg.net,Representative Michael H. Wray  (Dem)
652,96,919-733-5988,http://www.ncleg.net/gascripts/members/viewMember.pl?nUserID=652&sChamber=House,Catawba,H,"NC House of Representatives,16 W. Jones Street, Room 2221
,Raleigh, NC 27601-1096",Andy.Wells@ncleg.net,Representative Andy Wells  (Rep)
660,113,919-715-4466,http://www.ncleg.net/gascripts/members/viewMember.pl?nUserID=660&sChamber=House,"Henderson,Polk,Transylvania",H,"NC House of Representatives,300 N. Salisbury Street, Room 537
,Raleigh, NC 27603-5925",Chris.Whitmire@ncleg.net,Representative Chris Whitmire  (Rep)
503,2,919-715-0850,http://www.ncleg.net/gascripts/members/viewMember.pl?nUserID=503&sChamber=House,"Granville,Person",H,"NC House of Representatives,16 W. Jones Street, Room 1301
,Raleigh, NC 27601-1096",Winkie.Wilkins@ncleg.net,Representative W. A. (Winkie) Wilkins  (Dem)
682,80,919-715-2526,http://www.ncleg.net/gascripts/members/viewMember.pl?nUserID=682&sChamber=House,Davidson,H,"NC House of Representatives,16 W. Jones Street, Room 1206
,Raleigh, NC 27601-1096",Roger.Younts@ncleg.net,Representative Roger Younts  (Rep)
673,46,919-733-5821,http://www.ncleg.net/gascripts/members/viewMember.pl?nUserID=673&sChamber=House,"Bladen,Columbus,Robeson",H,"NC House of Representatives,16 W. Jones Street, Room 1311
,Raleigh, NC 27601-1096",Ken.Waddell@ncleg.net,Representative Ken Waddell  (Dem)
267,120,919-733-5859,http://www.ncleg.net/gascripts/members/viewMember.pl?nUserID=267&sChamber=House,"Cherokee,Clay,Graham,Macon",H,"NC House of Representatives,16 W. Jones Street, Room 1229
,Raleigh, NC 27601-1096",Roger.West@ncleg.net,Representative Roger West  (Rep)
630,77,919-733-5784,http://www.ncleg.net/gascripts/members/viewMember.pl?nUserID=630&sChamber=House,Rowan,H,"NC House of Representatives,300 N. Salisbury Street, Room 611
,Raleigh, NC 27603-5925",Harry.Warren@ncleg.net,Representative Harry Warren  (Rep)
658,84,919-733-5661,http://www.ncleg.net/gascripts/members/viewMember.pl?nUserID=658&sChamber=House,Iredell,H,"NC House of Representatives,16 W. Jones Street, Room 1104
,Raleigh, NC 27601-1096",Rena.Turner@ncleg.net,Representative Rena W. Turner  (Rep)
565,98,919-733-3451,http://www.ncleg.net/gascripts/members/viewMember.pl?nUserID=565&sChamber=House,Mecklenburg,H,"NC House of Representatives,16 W. Jones Street, Room 2304
,Raleigh, NC 27601-1096",Thom.Tillis@ncleg.net,Representative Thom Tillis  (Rep)
606,108,919-733-5868,http://www.ncleg.net/gascripts/members/viewMember.pl?nUserID=606&sChamber=House,Gaston,H,"NC House of Representatives,300 N. Salisbury Street, Room 538
,Raleigh, NC 27603-5925",John.Torbett@ncleg.net,Representative John A. Torbett  (Rep)
654,6,919-733-5906,http://www.ncleg.net/gascripts/members/viewMember.pl?nUserID=654&sChamber=House,"Beaufort,Dare,Hyde,Washington",H,"NC House of Representatives,16 W. Jones Street, Room 1307
,Raleigh, NC 27601-1096",Paul.Tine@ncleg.net,Representative Paul Tine  (Dem)
48,23,919-715-3024,http://www.ncleg.net/gascripts/members/viewMember.pl?nUserID=48&sChamber=House,"Edgecombe,Martin",H,"NC House of Representatives,300 N. Salisbury Street, Room 510
,Raleigh, NC 27603-5925",Joe.Tolson@ncleg.net,Representative Joe P. Tolson  (Dem)
676,71,919-733-5777,http://www.ncleg.net/gascripts/members/viewMember.pl?nUserID=676&sChamber=House,Forsyth,H,"NC House of Representatives,16 W. Jones Street, Room 1015
,Raleigh, NC 27601-1096",Evelyn.Terry@ncleg.net,Representative Evelyn Terry  (Dem)
662,45,919-733-9892,http://www.ncleg.net/gascripts/members/viewMember.pl?nUserID=662&sChamber=House,Cumberland,H,"NC House of Representatives,16 W. Jones Street, Room 2223
,Raleigh, NC 27601-1096",John.Szoka@ncleg.net,Representative John Szoka  (Rep)
629,51,919-715-3026,http://www.ncleg.net/gascripts/members/viewMember.pl?nUserID=629&sChamber=House,"Harnett,Lee",H,"NC House of Representatives,300 N. Salisbury Street, Room 529
,Raleigh, NC 27603-5925",Michael.Stone@ncleg.net,Representative Mike C. Stone  (Rep)
592,90,919-715-1883,http://www.ncleg.net/gascripts/members/viewMember.pl?nUserID=592&sChamber=House,"Surry,Wilkes",H,"NC House of Representatives,300 N. Salisbury Street, Room 635
,Raleigh, NC 27603-5925",Sarah.Stevens@ncleg.net,Representative Sarah Stevens  (Rep)
666,1,919-733-0010,http://www.ncleg.net/gascripts/members/viewMember.pl?nUserID=666&sChamber=House,"Camden,Chowan,Currituck,Pasquotank,Perquimans,Tyrrell",H,"NC House of Representatives,300 N. Salisbury Street, Room 306A2
,Raleigh, NC 27603-5925",Bob.Steinburg@ncleg.net,Representative Bob Steinburg  (Rep)
628,15,919-715-9644,http://www.ncleg.net/gascripts/members/viewMember.pl?nUserID=628&sChamber=House,Onslow,H,"NC House of Representatives,300 N. Salisbury Street, Room 530
,Raleigh, NC 27603-5925",Phil.Shepard@ncleg.net,Representative Phil Shepard  (Rep)
149,89,919-733-4948,http://www.ncleg.net/gascripts/members/viewMember.pl?nUserID=149&sChamber=House,Catawba,H,"NC House of Representatives,16 W. Jones Street, Room 2204
,Raleigh, NC 27601-1096",Mitchell.Setzer@ncleg.net,Representative Mitchell S. Setzer  (Rep)
91,87,919-733-5931,http://www.ncleg.net/gascripts/members/viewMember.pl?nUserID=91&sChamber=House,Caldwell,H,"NC House of Representatives,300 N. Salisbury Street, Room 301F
,Raleigh, NC 27603-5925",Edgar.Starnes@ncleg.net,Representative Edgar V. Starnes  (Rep)
671,3,919-733-5853,http://www.ncleg.net/gascripts/members/viewMember.pl?nUserID=671&sChamber=House,"Beaufort,Craven,Pamlico",H,"NC House of Representatives,16 W. Jones Street, Room 1008
,Raleigh, NC 27601-1096",Michael.Speciale@ncleg.net,Representative Michael Speciale  (Rep)
309,37,919-733-2962,http://www.ncleg.net/gascripts/members/viewMember.pl?nUserID=309&sChamber=House,Wake,H,"NC House of Representatives,300 N. Salisbury Street, Room 612
,Raleigh, NC 27603-5925",Paul.Stam@ncleg.net,Representative Paul Stam  (Rep)
647,105,919-733-5886,http://www.ncleg.net/gascripts/members/viewMember.pl?nUserID=647&sChamber=House,Mecklenburg,H,"NC House of Representatives,16 W. Jones Street, Room 1323
,Raleigh, NC 27601-1096",Jacqueline.Schaffer@ncleg.net,Representative Jacqueline Michelle Schaffer  (Rep)
632,97,919-733-5782,http://www.ncleg.net/gascripts/members/viewMember.pl?nUserID=632&sChamber=House,Lincoln,H,"NC House of Representatives,300 N. Salisbury Street, Room 402
,Raleigh, NC 27603-5925",Jason.Saine@ncleg.net,Representative Jason Saine  (Rep)
563,104,919-715-3009,http://www.ncleg.net/gascripts/members/viewMember.pl?nUserID=563&sChamber=House,Mecklenburg,H,"NC House of Representatives,16 W. Jones Street, Room 2226
,Raleigh, NC 27601-1096",Ruth.Samuelson@ncleg.net,Representative Ruth Samuelson  (Rep)
664,63,919-733-5820,http://www.ncleg.net/gascripts/members/viewMember.pl?nUserID=664&sChamber=House,Alamance,H,"NC House of Representatives,16 W. Jones Street, Room 1010
,Raleigh, NC 27601-1096",Stephen.Ross@ncleg.net,Representative Stephen M. Ross  (Rep)
311,,,http://www.ncleg.net/gascripts/members/viewMember.pl?nUserID=311&sChamber=House,,H,,,Representative Deborah K. Ross  (Dem)
665,64,919-733-5905,http://www.ncleg.net/gascripts/members/viewMember.pl?nUserID=665&sChamber=House,Alamance,H,"NC House of Representatives,300 N. Salisbury Street, Room 533
,Raleigh, NC 27603-5925",Dennis.Riddell@ncleg.net,Representative Dennis Riddell  (Rep)
653,115,919-733-5746,http://www.ncleg.net/gascripts/members/viewMember.pl?nUserID=653&sChamber=House,Buncombe,H,"NC House of Representatives,16 W. Jones Street, Room 1004
,Raleigh, NC 27601-1096",Nathan.Ramsey@ncleg.net,Representative Nathan Ramsey  (Rep)
684,54,919-733-0057,http://www.ncleg.net/gascripts/members/viewMember.pl?nUserID=684&sChamber=House,"Chatham,Lee",H,"NC House of Representatives,16 W. Jones Street, Room 1319
,Raleigh, NC 27601-1096",Robert.Reives@ncleg.net,"Representative Robert T. Reives, II  (Dem)"
680,7,919-715-3032,http://www.ncleg.net/gascripts/members/viewMember.pl?nUserID=680&sChamber=House,"Franklin,Nash",H,"NC House of Representatives,16 W. Jones Street, Room 1209
,Raleigh, NC 27601-1096",Bobbie.Richardson@ncleg.net,Representative Bobbie Richardson  (Dem)
669,119,919-715-3005,http://www.ncleg.net/gascripts/members/viewMember.pl?nUserID=669&sChamber=House,"Haywood,Jackson,Swain",H,"NC House of Representatives,16 W. Jones Street, Room 1017
,Raleigh, NC 27601-1096",Joe.Queen@ncleg.net,Representative Joe Sam Queen  (Dem)
497,48,919-733-5803,http://www.ncleg.net/gascripts/members/viewMember.pl?nUserID=497&sChamber=House,"Hoke,Richmond,Robeson,Scotland",H,"NC House of Representatives,16 W. Jones Street, Room 1204
,Raleigh, NC 27601-1096",Garland.Pierce@ncleg.net,Representative Garland E. Pierce  (Dem)
670,118,919-733-5732,http://www.ncleg.net/gascripts/members/viewMember.pl?nUserID=670&sChamber=House,"Haywood,Madison,Yancey",H,"NC House of Representatives,16 W. Jones Street, Room 1025
,Raleigh, NC 27601-1096",Michele.Presnell@ncleg.net,Representative Michele D. Presnell  (Rep)
633,82,919-715-2009,http://www.ncleg.net/gascripts/members/viewMember.pl?nUserID=633&sChamber=House,Cabarrus,H,"NC House of Representatives,16 W. Jones Street, Room 1321
,Raleigh, NC 27601-1096",Larry.Pittman@ncleg.net,Representative Larry G. Pittman  (Rep)
625,41,919-733-5602,http://www.ncleg.net/gascripts/members/viewMember.pl?nUserID=625&sChamber=House,Wake,H,"NC House of Representatives,16 W. Jones Street, Room 2121
,Raleigh, NC 27601-1096",Tom.Murry@ncleg.net,Representative Tom Murry  (Rep)
623,116,919-715-3012,http://www.ncleg.net/gascripts/members/viewMember.pl?nUserID=623&sChamber=House,Buncombe,H,"NC House of Representatives,16 W. Jones Street, Room 2119
,Raleigh, NC 27601-1096",Tim.Moffitt@ncleg.net,Representative Tim D. Moffitt  (Rep)
339,111,919-733-4838,http://www.ncleg.net/gascripts/members/viewMember.pl?nUserID=339&sChamber=House,Cleveland,H,"NC House of Representatives,16 W. Jones Street, Room 2301
,Raleigh, NC 27601-1096",Tim.Moore@ncleg.net,Representative Tim Moore  (Rep)
624,99,919-733-5606,http://www.ncleg.net/gascripts/members/viewMember.pl?nUserID=624&sChamber=House,Mecklenburg,H,"NC House of Representatives,16 W. Jones Street, Room 1213
,Raleigh, NC 27601-1096",Rodney.Moore@ncleg.net,Representative Rodney W. Moore  (Dem)
575,5,919-733-5780,http://www.ncleg.net/gascripts/members/viewMember.pl?nUserID=575&sChamber=House,"Bertie,Gates,Hertford,Pasquotank",H,"NC House of Representatives,300 N. Salisbury Street, Room 501
,Raleigh, NC 27603-5925",Annie.Mobley@ncleg.net,Representative Annie W. Mobley  (Dem)
683,50,919-715-3019,http://www.ncleg.net/gascripts/members/viewMember.pl?nUserID=683&sChamber=House,"Durham,Orange",H,"NC House of Representatives,16 W. Jones Street, Room 1111
,Raleigh, NC 27601-1096",Graig.Meyer@ncleg.net,Representative Graig R. Meyer  (Dem)
639,16,919-715-9664,http://www.ncleg.net/gascripts/members/viewMember.pl?nUserID=639&sChamber=House,"Onslow,Pender",H,"NC House of Representatives,300 N. Salisbury Street, Room 609
,Raleigh, NC 27603-5925",Chris.Millis@ncleg.net,Representative Chris Millis  (Rep)
71,31,919-715-2528,http://www.ncleg.net/gascripts/members/viewMember.pl?nUserID=71&sChamber=House,Durham,H,"NC House of Representatives,16 W. Jones Street, Room 1227
,Raleigh, NC 27601-1096",Mickey.Michaux@ncleg.net,"Representative Henry M. Michaux, Jr.  (Dem)"
570,13,919-733-6275,http://www.ncleg.net/gascripts/members/viewMember.pl?nUserID=570&sChamber=House,"Carteret,Jones",H,"NC House of Representatives,300 N. Salisbury Street, Room 634
,Raleigh, NC 27603-5925",Pat.McElraft@ncleg.net,Representative Pat McElraft  (Rep)
656,,,http://www.ncleg.net/gascripts/members/viewMember.pl?nUserID=656&sChamber=House,,H,,,Representative Deb McManus  (Dem)
605,117,919-733-5956,http://www.ncleg.net/gascripts/members/viewMember.pl?nUserID=605&sChamber=House,Henderson,H,"NC House of Representatives,300 N. Salisbury Street, Room 419B
,Raleigh, NC 27603-5925",Chuck.McGrady@ncleg.net,Representative Chuck McGrady  (Rep)
635,78,919-715-4946,http://www.ncleg.net/gascripts/members/viewMember.pl?nUserID=635&sChamber=House,"Moore,Randolph",H,"NC House of Representatives,300 N. Salisbury Street, Room 418C
,Raleigh, NC 27603-5925",Allen.McNeill@ncleg.net,Representative Allen McNeill  (Rep)
667,8,919-715-3023,http://www.ncleg.net/gascripts/members/viewMember.pl?nUserID=667&sChamber=House,"Pitt,Wilson",H,"NC House of Representatives,300 N. Salisbury Street, Room 306C
,Raleigh, NC 27603-5925",Susan.Martin@ncleg.net,Representative Susan Martin  (Rep)
63,30,919-733-7663,http://www.ncleg.net/gascripts/members/viewMember.pl?nUserID=63&sChamber=House,Durham,H,"NC House of Representatives,300 N. Salisbury Street, Room 513
,Raleigh, NC 27603-5925",Paul.Luebke@ncleg.net,Representative Paul Luebke  (Dem)
487,34,919-733-5773,http://www.ncleg.net/gascripts/members/viewMember.pl?nUserID=487&sChamber=House,Wake,H,"NC House of Representatives,16 W. Jones Street, Room 1023
,Raleigh, NC 27601-1096",Grier.Martin@ncleg.net,Representative Grier Martin  (Dem)
648,35,919-715-3010,http://www.ncleg.net/gascripts/members/viewMember.pl?nUserID=648&sChamber=House,Wake,H,"NC House of Representatives,300 N. Salisbury Street, Room 603
,Raleigh, NC 27603-5925",Chris.Malone@ncleg.net,Representative Chris Malone  (Rep)
216,42,919-733-5775,http://www.ncleg.net/gascripts/members/viewMember.pl?nUserID=216&sChamber=House,Cumberland,H,"NC House of Representatives,300 N. Salisbury Street, Room 509
,Raleigh, NC 27603-5925",Marvin.Lucas@ncleg.net,Representative Marvin W. Lucas  (Dem)
389,53,919-715-3015,http://www.ncleg.net/gascripts/members/viewMember.pl?nUserID=389&sChamber=House,Harnett,H,"NC House of Representatives,16 W. Jones Street, Room 1326
,Raleigh, NC 27601-1096",David.Lewis@ncleg.net,Representative David R. Lewis  (Rep)
646,75,919-733-5747,http://www.ncleg.net/gascripts/members/viewMember.pl?nUserID=646&sChamber=House,Forsyth,H,"NC House of Representatives,300 N. Salisbury Street, Room 610
,Raleigh, NC 27603-5925",Donny.Lambeth@ncleg.net,Representative Donny Lambeth  (Rep)
482,28,919-733-5849,http://www.ncleg.net/gascripts/members/viewMember.pl?nUserID=482&sChamber=House,Johnston,H,"NC House of Representatives,300 N. Salisbury Street, Room 417B
,Raleigh, NC 27603-5925",James.Langdon@ncleg.net,"Representative James H. Langdon, Jr.  (Rep)"
621,93,919-733-7727,http://www.ncleg.net/gascripts/members/viewMember.pl?nUserID=621&sChamber=House,"Ashe,Watauga",H,"NC House of Representatives,300 N. Salisbury Street, Room 420
,Raleigh, NC 27603-5925",Jonathan.Jordan@ncleg.net,Representative Jonathan C. Jordan  (Rep)
292,83,919-733-5861,http://www.ncleg.net/gascripts/members/viewMember.pl?nUserID=292&sChamber=House,Cabarrus,H,"NC House of Representatives,300 N. Salisbury Street, Room 301D
,Raleigh, NC 27603-5925",Linda.Johnson2@ncleg.net,Representative Linda P. Johnson  (Rep)
620,65,919-733-5779,http://www.ncleg.net/gascripts/members/viewMember.pl?nUserID=620&sChamber=House,"Caswell,Rockingham",H,"NC House of Representatives,300 N. Salisbury Street, Room 416A
,Raleigh, NC 27603-5925",Bert.Jones@ncleg.net,Representative Bert Jones  (Rep)
677,92,919-733-5654,http://www.ncleg.net/gascripts/members/viewMember.pl?nUserID=677&sChamber=House,Mecklenburg,H,"NC House of Representatives,16 W. Jones Street, Room 1002
,Raleigh, NC 27601-1096",Charles.Jeter@ncleg.net,Representative Charles Jeter  (Rep)
595,39,919-733-5974,http://www.ncleg.net/gascripts/members/viewMember.pl?nUserID=595&sChamber=House,Wake,H,"NC House of Representatives,16 W. Jones Street, Room 1013
,Raleigh, NC 27601-1096",Darren.Jackson@ncleg.net,Representative Darren G. Jackson  (Dem)
560,70,919-733-5865,http://www.ncleg.net/gascripts/members/viewMember.pl?nUserID=560&sChamber=House,Randolph,H,"NC House of Representatives,300 N. Salisbury Street, Room 532
,Raleigh, NC 27603-5925",Pat.Hurley@ncleg.net,Representative Pat B. Hurley  (Rep)
598,17,919-301-1450,http://www.ncleg.net/gascripts/members/viewMember.pl?nUserID=598&sChamber=House,Brunswick,H,"NC House of Representatives,300 N. Salisbury Street, Room 637
,Raleigh, NC 27603-5925",Frank.Iler@ncleg.net,Representative Frank Iler  (Rep)
46,56,919-733-7208,http://www.ncleg.net/gascripts/members/viewMember.pl?nUserID=46&sChamber=House,Orange,H,"NC House of Representatives,300 N. Salisbury Street, Room 502
,Raleigh, NC 27603-5925",Verla.Insko@ncleg.net,Representative Verla Insko  (Dem)
53,79,919-733-5904,http://www.ncleg.net/gascripts/members/viewMember.pl?nUserID=53&sChamber=House,"Davie,Forsyth",H,"NC House of Representatives,300 N. Salisbury Street, Room 302
,Raleigh, NC 27603-5925",Julia.Howard@ncleg.net,Representative Julia C. Howard  (Rep)
619,73,919-715-8361,http://www.ncleg.net/gascripts/members/viewMember.pl?nUserID=619&sChamber=House,"Alexander,Wilkes,Yadkin",H,"NC House of Representatives,300 N. Salisbury Street, Room 639
,Raleigh, NC 27603-5925",Mark.Hollo@ncleg.net,Representative Mark W. Hollo  (Rep)
604,68,919-733-2406,http://www.ncleg.net/gascripts/members/viewMember.pl?nUserID=604&sChamber=House,Union,H,"NC House of Representatives,300 N. Salisbury Street, Room 419A
,Raleigh, NC 27603-5925",Craig.Horn@ncleg.net,Representative D. Craig Horn  (Rep)
531,91,919-733-5609,http://www.ncleg.net/gascripts/members/viewMember.pl?nUserID=531&sChamber=House,"Rockingham,Stokes",H,"NC House of Representatives,300 N. Salisbury Street, Room 305
,Raleigh, NC 27603-5925",Bryan.Holloway@ncleg.net,Representative Bryan R. Holloway  (Rep)
650,38,919-733-5758,http://www.ncleg.net/gascripts/members/viewMember.pl?nUserID=650&sChamber=House,Wake,H,"NC House of Representatives,16 W. Jones Street, Room 1211
,Raleigh, NC 27601-1096",Yvonne.Holley@ncleg.net,Representative Yvonne Lewis Holley  (Dem)
618,110,919-715-2002,http://www.ncleg.net/gascripts/members/viewMember.pl?nUserID=618&sChamber=House,"Cleveland,Gaston",H,"NC House of Representatives,16 W. Jones Street, Room 2123
,Raleigh, NC 27601-1096",Kelly.Hastings@ncleg.net,Representative Kelly E. Hastings  (Rep)
504,57,919-733-5771,http://www.ncleg.net/gascripts/members/viewMember.pl?nUserID=504&sChamber=House,Guilford,H,"NC House of Representatives,16 W. Jones Street, Room 1218
,Raleigh, NC 27601-1096",Pricey.Harrison@ncleg.net,Representative Pricey Harrison  (Dem)
645,59,919-733-5191,http://www.ncleg.net/gascripts/members/viewMember.pl?nUserID=645&sChamber=House,Guilford,H,"NC House of Representatives,300 N. Salisbury Street, Room 632
,Raleigh, NC 27603-5925",Jon.Hardister@ncleg.net,Representative Jon Hardister  (Rep)
674,72,919-733-5829,http://www.ncleg.net/gascripts/members/viewMember.pl?nUserID=674&sChamber=House,Forsyth,H,"NC House of Representatives,16 W. Jones Street, Room 1305
,Raleigh, NC 27601-1096",Edward.Hanes@ncleg.net,"Representative Edward Hanes, Jr.  (Dem)"
572,29,919-733-5872,http://www.ncleg.net/gascripts/members/viewMember.pl?nUserID=572&sChamber=House,Durham,H,"NC House of Representatives,300 N. Salisbury Street, Room 506
,Raleigh, NC 27603-5925",Larry.Hall@ncleg.net,Representative Larry D. Hall  (Dem)
617,18,919-733-5754,http://www.ncleg.net/gascripts/members/viewMember.pl?nUserID=617&sChamber=House,"Brunswick,New Hanover",H,"NC House of Representatives,16 W. Jones Street, Room 1313
,Raleigh, NC 27601-1096",Susi.Hamilton@ncleg.net,Representative Susi H. Hamilton  (Dem)
616,112,919-733-5749,http://www.ncleg.net/gascripts/members/viewMember.pl?nUserID=616&sChamber=House,"Burke,Rutherford",H,"NC House of Representatives,300 N. Salisbury Street, Room 304
,Raleigh, NC 27603-5925",Mike.Hager@ncleg.net,Representative Mike Hager  (Rep)
679,11,919-733-5755,http://www.ncleg.net/gascripts/members/viewMember.pl?nUserID=679&sChamber=House,Wake,H,"NC House of Representatives,16 W. Jones Street, Room 1019
,Raleigh, NC 27601-1096",Duane.Hall@ncleg.net,Representative Duane Hall  (Dem)
672,12,919-733-5995,http://www.ncleg.net/gascripts/members/viewMember.pl?nUserID=672&sChamber=House,"Craven,Greene,Lenoir",H,"NC House of Representatives,16 W. Jones Street, Room 1317
,Raleigh, NC 27601-1096",George.Graham@ncleg.net,Representative George Graham  (Dem)
615,47,919-715-0875,http://www.ncleg.net/gascripts/members/viewMember.pl?nUserID=615&sChamber=House,Robeson,H,"NC House of Representatives,16 W. Jones Street, Room 1309
,Raleigh, NC 27601-1096",Charles.Graham@ncleg.net,Representative Charles Graham  (Dem)
651,49,919-733-5860,http://www.ncleg.net/gascripts/members/viewMember.pl?nUserID=651&sChamber=House,Wake,H,"NC House of Representatives,300 N. Salisbury Street, Room 602
,Raleigh, NC 27603-5925",Jim.Fulghum@ncleg.net,"Representative Jim Fulghum, M.D.  (Rep)"
614,66,919-733-5823,http://www.ncleg.net/gascripts/members/viewMember.pl?nUserID=614&sChamber=House,"Hoke,Montgomery,Richmond,Robeson,Scotland",H,"NC House of Representatives,300 N. Salisbury Street, Room 542
,Raleigh, NC 27603-5925",Ken.Goodman@ncleg.net,Representative Ken Goodman  (Dem)
317,44,919-733-5601,http://www.ncleg.net/gascripts/members/viewMember.pl?nUserID=317&sChamber=House,Cumberland,H,"NC House of Representatives,16 W. Jones Street, Room 1021
,Raleigh, NC 27601-1096",Rick.Glazier@ncleg.net,Representative Rick Glazier  (Dem)
657,,,http://www.ncleg.net/gascripts/members/viewMember.pl?nUserID=657&sChamber=House,,H,,,Representative Valerie P. Foushee  (Dem)
597,33,919-733-5880,http://www.ncleg.net/gascripts/members/viewMember.pl?nUserID=597&sChamber=House,Wake,H,"NC House of Representatives,16 W. Jones Street, Room 1303
,Raleigh, NC 27601-1096",Rosa.Gill@ncleg.net,Representative Rosa U. Gill  (Dem)
157,,,http://www.ncleg.net/gascripts/members/viewMember.pl?nUserID=157&sChamber=House,,H,,,Representative Mitch Gillespie  (Rep)
583,43,919-733-5959,http://www.ncleg.net/gascripts/members/viewMember.pl?nUserID=583&sChamber=House,Cumberland,H,"NC House of Representatives,16 W. Jones Street, Room 1325
,Raleigh, NC 27601-1096",Elmer.Floyd@ncleg.net,Representative Elmer Floyd  (Dem)
644,76,919-733-5881,http://www.ncleg.net/gascripts/members/viewMember.pl?nUserID=644&sChamber=House,"Cabarrus,Rowan",H,"NC House of Representatives,300 N. Salisbury Street, Room 607
,Raleigh, NC 27603-5925",Carl.Ford@ncleg.net,Representative Carl Ford  (Rep)
489,36,919-715-0795,http://www.ncleg.net/gascripts/members/viewMember.pl?nUserID=489&sChamber=House,Wake,H,"NC House of Representatives,300 N. Salisbury Street, Room 307B1
,Raleigh, NC 27603-5925",Nelson.Dollar@ncleg.net,Representative Nelson Dollar  (Rep)
643,94,919-733-5935,http://www.ncleg.net/gascripts/members/viewMember.pl?nUserID=643&sChamber=House,"Alleghany,Wilkes",H,"NC House of Representatives,300 N. Salisbury Street, Room 306A3
,Raleigh, NC 27603-5925",Jeffrey.Elmore@ncleg.net,Representative Jeffrey Elmore  (Rep)
34,101,919-715-2530,http://www.ncleg.net/gascripts/members/viewMember.pl?nUserID=34&sChamber=House,Mecklenburg,H,"NC House of Representatives,300 N. Salisbury Street, Room 514
,Raleigh, NC 27603-5925",Beverly.Earle@ncleg.net,Representative Beverly M. Earle  (Dem)
463,114,919-715-2013,http://www.ncleg.net/gascripts/members/viewMember.pl?nUserID=463&sChamber=House,Buncombe,H,"NC House of Representatives,300 N. Salisbury Street, Room 504
,Raleigh, NC 27603-5925",Susan.Fisher@ncleg.net,Representative Susan C. Fisher  (Dem)
379,24,919-733-5898,http://www.ncleg.net/gascripts/members/viewMember.pl?nUserID=379&sChamber=House,"Pitt,Wilson",H,"NC House of Representatives,16 W. Jones Street, Room 1220
,Raleigh, NC 27601-1096",Jean.Farmer-Butterfield@ncleg.net,Representative Jean Farmer-Butterfield  (Dem)
603,61,919-733-5877,http://www.ncleg.net/gascripts/members/viewMember.pl?nUserID=603&sChamber=House,Guilford,H,"NC House of Representatives,300 N. Salisbury Street, Room 613
,Raleigh, NC 27603-5925",John.Faircloth@ncleg.net,Representative John Faircloth  (Rep)
681,85,919-733-5862,http://www.ncleg.net/gascripts/members/viewMember.pl?nUserID=681&sChamber=House,"Avery,McDowell,Mitchell",H,"NC House of Representatives,16 W. Jones Street, Room 1006
,Raleigh, NC 27601-1096",Josh.Dobson@ncleg.net,Representative Josh Dobson  (Rep)
33,,,http://www.ncleg.net/gascripts/members/viewMember.pl?nUserID=33&sChamber=House,,H,,,Representative Jerry C. Dockham  (Rep)
642,106,919-733-5807,http://www.ncleg.net/gascripts/members/viewMember.pl?nUserID=642&sChamber=House,Mecklenburg,H,"NC House of Representatives,16 W. Jones Street, Room 1109
,Raleigh, NC 27601-1096",Carla.Cunningham@ncleg.net,Representative Carla D. Cunningham  (Dem)
576,100,919-715-0706,http://www.ncleg.net/gascripts/members/viewMember.pl?nUserID=576&sChamber=House,Mecklenburg,H,"NC House of Representatives,300 N. Salisbury Street, Room 403
,Raleigh, NC 27603-5925",Tricia.Cotham@ncleg.net,Representative Tricia Ann Cotham  (Dem)
613,4,919-715-3021,http://www.ncleg.net/gascripts/members/viewMember.pl?nUserID=613&sChamber=House,"Duplin,Wayne",H,"NC House of Representatives,300 N. Salisbury Street, Room 416B
,Raleigh, NC 27603-5925",Jimmy.Dixon@ncleg.net,Representative Jimmy Dixon  (Rep)
637,19,919-733-5786,http://www.ncleg.net/gascripts/members/viewMember.pl?nUserID=637&sChamber=House,New Hanover,H,"NC House of Representatives,300 N. Salisbury Street, Room 418B
,Raleigh, NC 27603-5925",Ted.Davis@ncleg.net,"Representative Ted Davis, Jr.  (Rep)"
675,74,919-733-5787,http://www.ncleg.net/gascripts/members/viewMember.pl?nUserID=675&sChamber=House,Forsyth,H,"NC House of Representatives,300 N. Salisbury Street, Room 606
,Raleigh, NC 27603-5925",Debra.Conrad@ncleg.net,Representative Debra Conrad  (Rep)
26,26,919-733-5605,http://www.ncleg.net/gascripts/members/viewMember.pl?nUserID=26&sChamber=House,Johnston,H,"NC House of Representatives,16 W. Jones Street, Room 2207
,Raleigh, NC 27601-1096",Leo.Daughtry@ncleg.net,Representative N. Leo Daughtry  (Rep)
476,14,919-715-6707,http://www.ncleg.net/gascripts/members/viewMember.pl?nUserID=476&sChamber=House,Onslow,H,"NC House of Representatives,300 N. Salisbury Street, Room 417A
,Raleigh, NC 27603-5925",George.Cleveland@ncleg.net,Representative George G. Cleveland  (Rep)
611,25,919-733-5802,http://www.ncleg.net/gascripts/members/viewMember.pl?nUserID=611&sChamber=House,"Franklin,Nash",H,"NC House of Representatives,16 W. Jones Street, Room 1106
,Raleigh, NC 27601-1096",Jeff.Collins@ncleg.net,Representative Jeff Collins  (Rep)
678,88,919-733-5607,http://www.ncleg.net/gascripts/members/viewMember.pl?nUserID=678&sChamber=House,Mecklenburg,H,"NC House of Representatives,300 N. Salisbury Street, Room 536
,Raleigh, NC 27603-5925",Rob.Bryan@ncleg.net,Representative Rob Bryan  (Rep)
668,20,919-733-5830,http://www.ncleg.net/gascripts/members/viewMember.pl?nUserID=668&sChamber=House,New Hanover,H,"NC House of Representatives,300 N. Salisbury Street, Room 638
,Raleigh, NC 27603-5925",Rick.Catlin@ncleg.net,Representative Rick Catlin  (Rep)
659,109,919-733-5809,http://www.ncleg.net/gascripts/members/viewMember.pl?nUserID=659&sChamber=House,Gaston,H,"NC House of Representatives,300 N. Salisbury Street, Room 608
,Raleigh, NC 27603-5925",Dana.Bumgardner@ncleg.net,Representative Dana Bumgardner  (Rep)
574,,,http://www.ncleg.net/gascripts/members/viewMember.pl?nUserID=574&sChamber=House,,H,,,Representative Angela R. Bryant  (Dem)
582,67,919-733-5908,http://www.ncleg.net/gascripts/members/viewMember.pl?nUserID=582&sChamber=House,"Montgomery,Stanly",H,"NC House of Representatives,300 N. Salisbury Street, Room 307A
,Raleigh, NC 27603-5925",Justin.Burr@ncleg.net,Representative Justin P. Burr  (Rep)
322,102,919-733-5827,http://www.ncleg.net/gascripts/members/viewMember.pl?nUserID=322&sChamber=House,Mecklenburg,H,"NC House of Representatives,16 W. Jones Street, Room 1221
,Raleigh, NC 27601-1096",Becky.Carney@ncleg.net,Representative Becky Carney  (Dem)
663,55,919-715-3029,http://www.ncleg.net/gascripts/members/viewMember.pl?nUserID=663&sChamber=House,"Anson,Union",H,"NC House of Representatives,16 W. Jones Street, Room 2219
,Raleigh, NC 27601-1096",Mark.Brody@ncleg.net,Representative Mark Brody  (Rep)
610,81,919-715-0873,http://www.ncleg.net/gascripts/members/viewMember.pl?nUserID=610&sChamber=House,Davidson,H,"NC House of Representatives,300 N. Salisbury Street, Room 633
,Raleigh, NC 27603-5925",Rayne.Brown@ncleg.net,Representative Rayne Brown  (Rep)
655,9,919-733-5757,http://www.ncleg.net/gascripts/members/viewMember.pl?nUserID=655&sChamber=House,Pitt,H,"NC House of Representatives,300 N. Salisbury Street, Room 604
,Raleigh, NC 27603-5925",Brian.Brown@ncleg.net,Representative Brian Brown  (Rep)
608,60,919-733-5825,http://www.ncleg.net/gascripts/members/viewMember.pl?nUserID=608&sChamber=House,Guilford,H,"NC House of Representatives,16 W. Jones Street, Room 1217
,Raleigh, NC 27601-1096",Marcus.Brandon@ncleg.net,Representative Marcus Brandon  (Dem)
609,103,919-733-5800,http://www.ncleg.net/gascripts/members/viewMember.pl?nUserID=609&sChamber=House,Mecklenburg,H,"NC House of Representatives,300 N. Salisbury Street, Room 534
,Raleigh, NC 27603-5925",Bill.Brawley@ncleg.net,Representative William Brawley  (Rep)
641,95,919-733-5741,http://www.ncleg.net/gascripts/members/viewMember.pl?nUserID=641&sChamber=House,Iredell,H,"NC House of Representatives,300 N. Salisbury Street, Room 303
,Raleigh, NC 27603-5925",Robert.Brawley@ncleg.net,Representative C. Robert Brawley  (Rep)
558,22,919-733-5772,http://www.ncleg.net/gascripts/members/viewMember.pl?nUserID=558&sChamber=House,"Bladen,Johnston,Sampson",H,"NC House of Representatives,300 N. Salisbury Street, Room 405
,Raleigh, NC 27603-5925",William.Brisson@ncleg.net,Representative William D. Brisson  (Dem)
581,52,919-733-5903,http://www.ncleg.net/gascripts/members/viewMember.pl?nUserID=581&sChamber=House,Moore,H,"NC House of Representatives,300 N. Salisbury Street, Room 528
,Raleigh, NC 27603-5925",Jamie.Boles@ncleg.net,"Representative James L. Boles, Jr.  (Rep)"
234,62,919-733-5781,http://www.ncleg.net/gascripts/members/viewMember.pl?nUserID=234&sChamber=House,Guilford,H,"NC House of Representatives,16 W. Jones Street, Room 2208
,Raleigh, NC 27601-1096",John.Blust@ncleg.net,Representative John M. Blust  (Rep)
661,10,919-715-3017,http://www.ncleg.net/gascripts/members/viewMember.pl?nUserID=661&sChamber=House,"Craven,Greene,Lenoir,Wayne",H,"NC House of Representatives,300 N. Salisbury Street, Room 418A
,Raleigh, NC 27603-5925",John.Bell@ncleg.net,"Representative John R. Bell, IV  (Rep)"
649,32,919-733-5824,http://www.ncleg.net/gascripts/members/viewMember.pl?nUserID=649&sChamber=House,"Granville,Vance,Warren",H,"NC House of Representatives,16 W. Jones Street, Room 1315
,Raleigh, NC 27601-1096",Nathan.Baskerville@ncleg.net,Representative Nathan Baskerville  (Dem)
568,40,919-733-5530,http://www.ncleg.net/gascripts/members/viewMember.pl?nUserID=568&sChamber=House,Wake,H,"NC House of Representatives,16 W. Jones Street, Room 2217
,Raleigh, NC 27601-1096",Marilyn.Avila@ncleg.net,Representative Marilyn Avila  (Rep)
640,69,919-715-3007,http://www.ncleg.net/gascripts/members/viewMember.pl?nUserID=640&sChamber=House,Union,H,"NC House of Representatives,300 N. Salisbury Street, Room 531
,Raleigh, NC 27603-5925",Dean.Arp@ncleg.net,Representative Dean Arp  (Rep)
301,21,919-733-5863,http://www.ncleg.net/gascripts/members/viewMember.pl?nUserID=301&sChamber=House,"Duplin,Sampson,Wayne",H,"NC House of Representatives,300 N. Salisbury Street, Room 508
,Raleigh, NC 27603-5925",Larry.Bell@ncleg.net,Representative Larry M. Bell  (Dem)
580,86,919-733-5805,http://www.ncleg.net/gascripts/members/viewMember.pl?nUserID=580&sChamber=House,Burke,H,"NC House of Representatives,300 N. Salisbury Street, Room 541
,Raleigh, NC 27603-5925",Hugh.Blackwell@ncleg.net,Representative Hugh Blackwell  (Rep)
579,107,919-733-5778,http://www.ncleg.net/gascripts/members/viewMember.pl?nUserID=579&sChamber=House,Mecklenburg,H,"NC House of Representatives,300 N. Salisbury Street, Room 404
,Raleigh, NC 27603-5925",Kelly.Alexander@ncleg.net,"Representative Kelly M. Alexander, Jr.  (Dem)"
379,22,(919) 733-4809,http://www.ncleg.net/gascripts/members/viewMember.pl?nUserID=379&sChamber=senate,"Caswell,Durham,Person",S,"NC Senate,300 N. Salisbury Street, Room 515
,Raleigh, NC 27603-5925",Mike.Woodard@ncleg.net,Senator Mike Woodard  (Dem)
269,13,(919) 733-5651,http://www.ncleg.net/gascripts/members/viewMember.pl?nUserID=269&sChamber=senate,"Columbus,Robeson",S,"NC Senate,300 N. Salisbury Street, Room 517
,Raleigh, NC 27603-5925",Michael.Walters@ncleg.net,Senator Michael P. Walters  (Dem)
119,49,(919) 715-3001,http://www.ncleg.net/gascripts/members/viewMember.pl?nUserID=119&sChamber=senate,Buncombe,S,"NC Senate,16 W. Jones Street, Room 1129
,Raleigh, NC 27601-2808",Martin.Nesbitt@ncleg.net,"Senator Martin L. Nesbitt, Jr.  (Dem)"
305,19,(919) 733-5776,http://www.ncleg.net/gascripts/members/viewMember.pl?nUserID=305&sChamber=senate,Cumberland,S,"NC Senate,300 N. Salisbury Street, Room 314
,Raleigh, NC 27603-5925",Wesley.Meredith@ncleg.net,Senator Wesley Meredith  (Rep)
228,20,(919) 733-4599,http://www.ncleg.net/gascripts/members/viewMember.pl?nUserID=228&sChamber=senate,"Durham,Granville",S,"NC Senate,300 N. Salisbury Street, Room 628
,Raleigh, NC 27603-5925",Floyd.McKissick@ncleg.net,"Senator Floyd B. McKissick, Jr.  (Dem)"
371,25,(919) 733-5953,http://www.ncleg.net/gascripts/members/viewMember.pl?nUserID=371&sChamber=senate,"Anson,Richmond,Rowan,Scotland,Stanly",S,"NC Senate,16 W. Jones Street, Room 1118
,Raleigh, NC 27601-2808",Gene.McLaurin@ncleg.net,Senator Gene McLaurin  (Dem)
377,27,(919) 733-5856,http://www.ncleg.net/gascripts/members/viewMember.pl?nUserID=377&sChamber=senate,Guilford,S,"NC Senate,16 W. Jones Street, Room 2106
,Raleigh, NC 27601-2808",Trudy.Wade@ncleg.net,Senator Trudy Wade  (Rep)
384,31,(919) 733-7850,http://www.ncleg.net/gascripts/members/viewMember.pl?nUserID=384&sChamber=senate,"Forsyth,Yadkin",S,"NC Senate,16 W. Jones Street, Room 2022
,Raleigh, NC 27601-2808",Joyce.Krawiec@ncleg.net,Senator Joyce Krawiec  (Rep)
8,,,http://www.ncleg.net/gascripts/members/viewMember.pl?nUserID=8&sChamber=senate,,S,,,Senator Eleanor Kinnaird  (Dem)
227,4,(919) 715-3032,http://www.ncleg.net/gascripts/members/viewMember.pl?nUserID=227&sChamber=senate,"Halifax,Nash,Vance,Warren,Wilson",S,"NC Senate,300 N. Salisbury Street, Room 518
,Raleigh, NC 27603-5925",Edward.Jones@ncleg.net,Senator Ed Jones  (Dem)
71,3,(919) 715-3040,http://www.ncleg.net/gascripts/members/viewMember.pl?nUserID=71&sChamber=senate,"Bertie,Chowan,Edgecombe,Hertford,Martin,Northampton,Tyrrell,Washington",S,"NC Senate,300 N. Salisbury Street, Room 621
,Raleigh, NC 27603-5925",Clark.Jenkins@ncleg.net,Senator Clark Jenkins  (Dem)
281,10,(919) 733-5705,http://www.ncleg.net/gascripts/members/viewMember.pl?nUserID=281&sChamber=senate,"Duplin,Johnston,Sampson",S,"NC Senate,300 N. Salisbury Street, Room 523
,Raleigh, NC 27603-5925",Brent.Jackson@ncleg.net,Senator Brent Jackson  (Rep)
200,15,(919) 733-5850,http://www.ncleg.net/gascripts/members/viewMember.pl?nUserID=200&sChamber=senate,Wake,S,"NC Senate,300 N. Salisbury Street, Room 309
,Raleigh, NC 27603-5925",Neal.Hunt@ncleg.net,Senator Neal Hunt  (Rep)
298,47,(919) 733-3460,http://www.ncleg.net/gascripts/members/viewMember.pl?nUserID=298&sChamber=senate,"Madison,McDowell,Mitchell,Polk,Rutherford,Yancey",S,"NC Senate,16 W. Jones Street, Room 1026
,Raleigh, NC 27601-2808",Ralph.Hise@ncleg.net,Senator Ralph Hise  (Rep)
20,36,(919) 733-7223,http://www.ncleg.net/gascripts/members/viewMember.pl?nUserID=20&sChamber=senate,"Cabarrus,Union",S,"NC Senate,300 N. Salisbury Street, Room 300-C
,Raleigh, NC 27603-5925",Fletcher.Hartsell@ncleg.net,"Senator Fletcher L. Hartsell, Jr.  (Rep)"
283,43,(919) 733-5734,http://www.ncleg.net/gascripts/members/viewMember.pl?nUserID=283&sChamber=senate,Gaston,S,"NC Senate,16 W. Jones Street, Room 2113
,Raleigh, NC 27601-2808",Kathy.Harrington@ncleg.net,Senator Kathy Harrington  (Rep)
276,24,(919) 301-1446,http://www.ncleg.net/gascripts/members/viewMember.pl?nUserID=276&sChamber=senate,"Alamance,Randolph",S,"NC Senate,300 N. Salisbury Street, Room 312
,Raleigh, NC 27603-5925",Rick.Gunn@ncleg.net,Senator Rick Gunn  (Rep)
331,9,(919) 715-2525,http://www.ncleg.net/gascripts/members/viewMember.pl?nUserID=331&sChamber=senate,New Hanover,S,"NC Senate,300 N. Salisbury Street, Room 406
,Raleigh, NC 27603-5925",Thom.Goolsby@ncleg.net,Senator Thom Goolsby  (Rep)
192,40,(919) 733-5650,http://www.ncleg.net/gascripts/members/viewMember.pl?nUserID=192&sChamber=senate,Mecklenburg,S,"NC Senate,300 N. Salisbury Street, Room 622
,Raleigh, NC 27603-5925",Malcolm.Graham@ncleg.net,Senator Malcolm Graham  (Dem)
383,23,(919) 733-5804,http://www.ncleg.net/gascripts/members/viewMember.pl?nUserID=383&sChamber=senate,"Chatham,Orange",S,"NC Senate,300 N. Salisbury Street, Room 520
,Raleigh, NC 27603-5925",Valerie.Foushee@ncleg.net,Senator Valerie P. Foushee  (Dem)
370,38,(919) 733-5955,http://www.ncleg.net/gascripts/members/viewMember.pl?nUserID=370&sChamber=senate,Mecklenburg,S,"NC Senate,16 W. Jones Street, Room 1119
,Raleigh, NC 27601-2808",Joel.Ford@ncleg.net,Senator Joel D. M. Ford  (Dem)
295,46,(919) 715-7823,http://www.ncleg.net/gascripts/members/viewMember.pl?nUserID=295&sChamber=senate,"Burke,Cleveland",S,"NC Senate,16 W. Jones Street, Room 1127
,Raleigh, NC 27601-2808",Warren.Daniel@ncleg.net,Senator Warren Daniel  (Rep)
357,50,(919) 733-5875,http://www.ncleg.net/gascripts/members/viewMember.pl?nUserID=357&sChamber=senate,"Cherokee,Clay,Graham,Haywood,Jackson,Macon,Swain",S,"NC Senate,16 W. Jones Street, Room 2111
,Raleigh, NC 27601-2808",Jim.Davis@ncleg.net,Senator Jim Davis  (Rep)
230,5,(919) 715-8363,http://www.ncleg.net/gascripts/members/viewMember.pl?nUserID=230&sChamber=senate,"Greene,Lenoir,Pitt,Wayne",S,"NC Senate,300 N. Salisbury Street, Room 518
,Raleigh, NC 27603-5925",Don.Davis@ncleg.net,Senator Don Davis  (Dem)
378,44,(919) 715-3038,http://www.ncleg.net/gascripts/members/viewMember.pl?nUserID=378&sChamber=senate,"Gaston,Iredell,Lincoln",S,"NC Senate,300 N. Salisbury Street, Room 410
,Raleigh, NC 27603-5925",David.Curtis@ncleg.net,Senator David L. Curtis  (Rep)
54,37,(919) 715-8331,http://www.ncleg.net/gascripts/members/viewMember.pl?nUserID=54&sChamber=senate,Mecklenburg,S,"NC Senate,300 N. Salisbury Street, Room 620
,Raleigh, NC 27603-5925",Daniel.Clodfelter@ncleg.net,Senator Daniel G. Clodfelter  (Dem)
381,1,(919) 715-8293,http://www.ncleg.net/gascripts/members/viewMember.pl?nUserID=381&sChamber=senate,"Beaufort,Camden,Currituck,Dare,Gates,Hyde,Pasquotank,Perquimans",S,"NC Senate,300 N. Salisbury Street, Room 525
,Raleigh, NC 27603-5925",Bill.Cook@ncleg.net,Senator Bill Cook  (Rep)
380,21,(919) 733-9349,http://www.ncleg.net/gascripts/members/viewMember.pl?nUserID=380&sChamber=senate,"Cumberland,Hoke",S,"NC Senate,16 W. Jones Street, Room 1121
,Raleigh, NC 27601-2808",Ben.Clark@ncleg.net,Senator Ben Clark  (Dem)
382,4,(919) 733-5878,http://www.ncleg.net/gascripts/members/viewMember.pl?nUserID=382&sChamber=senate,"Halifax,Nash,Vance,Warren,Wilson",S,"NC Senate,300 N. Salisbury Street, Room 516
,Raleigh, NC 27603-5925",Angela.Bryant@ncleg.net,Senator Angela R. Bryant  (Dem)
139,6,(919) 715-3034,http://www.ncleg.net/gascripts/members/viewMember.pl?nUserID=139&sChamber=senate,"Jones,Onslow",S,"NC Senate,300 N. Salisbury Street, Room 300-B
,Raleigh, NC 27603-5925",Harry.Brown@ncleg.net,Senator Harry Brown  (Rep)
223,,,http://www.ncleg.net/gascripts/members/viewMember.pl?nUserID=223&sChamber=senate,,S,,,Senator Peter S. Brunstetter  (Rep)
104,34,(919) 715-0690,http://www.ncleg.net/gascripts/members/viewMember.pl?nUserID=104&sChamber=senate,"Davie,Iredell,Rowan",S,"NC Senate,300 N. Salisbury Street, Room 521
,Raleigh, NC 27603-5925",Andrew.Brock@ncleg.net,Senator Andrew C. Brock  (Rep)
268,14,(919) 733-5752,http://www.ncleg.net/gascripts/members/viewMember.pl?nUserID=268&sChamber=senate,Wake,S,"NC Senate,16 W. Jones Street, Room 1117
,Raleigh, NC 27601-2808",Dan.Blue@ncleg.net,Senator Dan Blue  (Dem)
63,33,(919) 733-5665,http://www.ncleg.net/gascripts/members/viewMember.pl?nUserID=63&sChamber=senate,"Davidson,Montgomery",S,"NC Senate,16 W. Jones Street, Room 2117
,Raleigh, NC 27601-2808",Stan.Bingham@ncleg.net,Senator Stan Bingham  (Rep)
64,26,(919) 733-5708,http://www.ncleg.net/gascripts/members/viewMember.pl?nUserID=64&sChamber=senate,"Guilford,Rockingham",S,"NC Senate,16 W. Jones Street, Room 2008
,Raleigh, NC 27601-2808",Phil.Berger@ncleg.net,Senator Phil Berger  (Rep)
368,17,(919) 733-5653,http://www.ncleg.net/gascripts/members/viewMember.pl?nUserID=368&sChamber=senate,Wake,S,"NC Senate,300 N. Salisbury Street, Room 411
,Raleigh, NC 27603-5925",Tamara.Barringer@ncleg.net,Senator Tamara Barringer  (Rep)
369,18,(919) 715-3036,http://www.ncleg.net/gascripts/members/viewMember.pl?nUserID=369&sChamber=senate,"Franklin,Wake",S,"NC Senate,300 N. Salisbury Street, Room 623
,Raleigh, NC 27603-5925",Chad.Barefoot@ncleg.net,Senator Chad Barefoot  (Rep)
83,48,(919) 733-5745,http://www.ncleg.net/gascripts/members/viewMember.pl?nUserID=83&sChamber=senate,"Buncombe,Henderson,Transylvania",S,"NC Senate,16 W. Jones Street, Room 2010
,Raleigh, NC 27601-2808",Tom.Apodaca@ncleg.net,Senator Tom Apodaca  (Rep)
